{"type": "FeatureCollection", "features": [{"type": "Feature", "id": "united states", "properties": {"preset_id": "united states", "name": "United States"}, "geometry": {"type": "MultiPolygon", "coordinates": [[[[-122.84, 49.0], [-95.15907, 49.0], [-95.15609, 49.38425], [-94.81758, 49.38905], [-94.64, 48.84], [-94.32914, 48.67074], [-92.61, 48.45], [-91.64, 48.14], [-90.83, 48.27], [-89.272917, 48.019808], [-88.378114, 48.302918], [-84.87608, 46.900083], [-84.779238, 46.637102], [-84.543749, 46.538684], [-84.6049, 46.4396], [-84.14212, 46.512226], [-83.890765, 46.116927], [-83.469551, 45.994686], [-83.592851, 45.816894], [-82.550925, 45.347517], [-82.137642, 43.571088], [-83.12, 42.08], [-83.02981, 41.832796], [-82.690089, 41.675105], [-78.939362, 42.863611], [-79.171674, 43.466339], [-78.72028, 43.625089], [-76.820034, 43.628784], [-76.5, 44.018459], [-74.867, 45.00048], [-71.50506, 45.0082], [-71.405, 45.255], [-70.66, 45.46], [-69.99997, 46.69307], [-69.237216, 47.447781], [-68.905, 47.185], [-68.23444, 47.35486], [-67.79046, 47.06636], [-67.79134, 45.70281], [-66.96466, 44.8097], [-70.11617, 43.68405], [-70.81489, 42.8653], [-70.825, 42.335], [-70.495, 41.805], [-70.08, 41.78], [-70.185, 42.145], [-69.88497, 41.92283], [-69.96503, 41.63717], [-72.87643, 41.22065], [-73.71, 40.931102], [-72.24126, 41.11948], [-71.945, 40.93], [-73.345, 40.63], [-73.982, 40.628], [-73.952325, 40.75075], [-74.25671, 40.47351], [-73.96244, 40.42763], [-74.17838, 39.70926], [-74.90604, 38.93954], [-74.98041, 39.1964], [-75.52805, 39.4985], [-75.32, 38.96], [-75.071835, 38.782032], [-75.05673, 38.40412], [-75.94023, 37.21689], [-75.72205, 37.93705], [-76.23287, 38.319215], [-76.35, 39.15], [-76.542725, 38.717615], [-76.32933, 38.08326], [-76.989998, 38.239992], [-76.30162, 37.917945], [-76.25874, 36.9664], [-75.9718, 36.89726], [-75.72749, 35.55074], [-76.36318, 34.80854], [-77.397635, 34.51201], [-78.05496, 33.92547], [-78.55435, 33.86133], [-79.06067, 33.49395], [-79.20357, 33.15839], [-80.301325, 32.509355], [-81.33629, 31.44049], [-81.49042, 30.72999], [-81.31371, 30.03552], [-80.535585, 28.47213], [-80.53, 28.04], [-80.056539, 26.88], [-80.13156, 25.816775], [-80.38103, 25.20616], [-80.68, 25.08], [-81.17213, 25.20126], [-81.33, 25.64], [-81.71, 25.87], [-82.85526, 27.88624], [-82.65, 28.55], [-82.93, 29.1], [-83.70959, 29.93656], [-84.1, 30.09], [-85.10882, 29.63615], [-85.7731, 30.15261], [-86.4, 30.4], [-87.53036, 30.27433], [-88.41782, 30.3849], [-89.593831, 30.159994], [-89.413735, 29.89419], [-89.43, 29.48864], [-89.21767, 29.29108], [-89.40823, 29.15961], [-89.77928, 29.30714], [-90.15463, 29.11743], [-90.880225, 29.148535], [-91.626785, 29.677], [-92.49906, 29.5523], [-93.22637, 29.78375], [-94.69, 29.48], [-95.60026, 28.73863], [-96.59404, 28.30748], [-97.14, 27.83], [-97.37, 27.38], [-97.38, 26.69], [-97.14, 25.87], [-97.53, 25.84], [-99.02, 26.37], [-99.52, 27.54], [-100.11, 28.11], [-100.9576, 29.38071], [-101.6624, 29.7793], [-102.48, 29.76], [-103.11, 28.97], [-103.94, 29.27], [-104.45697, 29.57196], [-105.03737, 30.64402], [-106.50759, 31.75452], [-108.24, 31.754854], [-108.24194, 31.34222], [-111.02361, 31.33472], [-114.815, 32.52528], [-114.72139, 32.72083], [-117.12776, 32.53534], [-117.295938, 33.046225], [-117.944, 33.621236], [-118.410602, 33.740909], [-118.519895, 34.027782], [-119.081, 34.078], [-119.438841, 34.348477], [-120.36778, 34.44711], [-120.62286, 34.60855], [-120.74433, 35.15686], [-121.71457, 36.16153], [-122.54747, 37.55176], [-122.51201, 37.78339], [-123.7272, 38.95166], [-123.86517, 39.76699], [-124.39807, 40.3132], [-124.17886, 41.14202], [-124.2137, 41.99964], [-124.53284, 42.76599], [-124.14214, 43.70838], [-123.89893, 45.52341], [-124.079635, 46.86475], [-124.68721, 48.184433], [-124.566101, 48.379715], [-123.12, 48.04], [-122.58736, 47.096], [-122.34, 47.36], [-122.84, 49.0]]], [[[-155.40214, 20.07975], [-154.80741, 19.50871], [-155.68817, 18.91619], [-155.93665, 19.05939], [-156.07347, 19.70294], [-155.85008, 19.97729], [-155.86108, 20.26721], [-155.40214, 20.07975]]], [[[-155.99566, 20.76404], [-156.41445, 20.57241], [-156.71055, 20.92676], [-156.61258, 21.01249], [-155.99566, 20.76404]]], [[[-156.75824, 21.17684], [-156.78933, 21.06873], [-157.32521, 21.09777], [-157.25027, 21.21958], [-156.75824, 21.17684]]], [[[-158.0252, 21.71696], [-157.65283, 21.32217], [-157.70703, 21.26442], [-158.12667, 21.31244], [-158.29265, 21.57912], [-158.0252, 21.71696]]], [[[-159.36569, 22.21494], [-159.46372, 21.88299], [-159.80051, 22.06533], [-159.5962, 22.23618], [-159.36569, 22.21494]]], [[[-166.467792, 60.38417], [-165.67443, 60.293607], [-165.579164, 59.909987], [-166.19277, 59.754441], [-167.455277, 60.213069], [-166.467792, 60.38417]]], [[[-153.228729, 57.968968], [-152.564791, 57.901427], [-152.141147, 57.591059], [-154.00509, 56.734677], [-154.516403, 56.992749], [-154.670993, 57.461196], [-153.228729, 57.968968]]], [[[-140.985988, 69.711998], [-140.99778, 60.30639], [-140.013, 60.27682], [-139.039, 60.0], [-137.4525, 58.905], [-136.47972, 59.46389], [-135.47583, 59.78778], [-134.945, 59.27056], [-133.35556, 58.41028], [-131.70781, 56.55212], [-130.00778, 55.91583], [-129.98, 55.285], [-130.53611, 54.802753], [-131.967211, 55.497776], [-132.250011, 56.369996], [-133.539181, 57.178887], [-134.078063, 58.123068], [-136.628062, 58.212209], [-137.800006, 58.499995], [-139.867787, 59.537762], [-142.574444, 60.084447], [-143.958881, 59.99918], [-147.114374, 60.884656], [-148.224306, 60.672989], [-148.018066, 59.978329], [-149.727858, 59.705658], [-151.716393, 59.155821], [-151.859433, 59.744984], [-151.409719, 60.725803], [-150.346941, 61.033588], [-150.621111, 61.284425], [-151.895839, 60.727198], [-152.57833, 60.061657], [-154.019172, 59.350279], [-153.287511, 58.864728], [-154.232492, 58.146374], [-156.308335, 57.422774], [-156.556097, 56.979985], [-158.117217, 56.463608], [-158.433321, 55.994154], [-159.603327, 55.566686], [-160.28972, 55.643581], [-163.069447, 54.689737], [-164.785569, 54.404173], [-164.942226, 54.572225], [-161.804175, 55.894986], [-160.563605, 56.008055], [-160.07056, 56.418055], [-158.684443, 57.016675], [-157.72277, 57.570001], [-157.550274, 58.328326], [-157.041675, 58.918885], [-158.194731, 58.615802], [-158.517218, 58.787781], [-159.058606, 58.424186], [-159.711667, 58.93139], [-159.981289, 58.572549], [-160.355271, 59.071123], [-161.355003, 58.670838], [-161.968894, 58.671665], [-162.054987, 59.266925], [-161.874171, 59.633621], [-162.518059, 59.989724], [-163.818341, 59.798056], [-165.346388, 60.507496], [-165.350832, 61.073895], [-166.121379, 61.500019], [-165.734452, 62.074997], [-164.919179, 62.633076], [-164.562508, 63.146378], [-163.753332, 63.219449], [-163.067224, 63.059459], [-162.260555, 63.541936], [-161.53445, 63.455817], [-160.772507, 63.766108], [-160.958335, 64.222799], [-161.518068, 64.402788], [-160.777778, 64.788604], [-162.45305, 64.559445], [-162.757786, 64.338605], [-163.546394, 64.55916], [-164.96083, 64.446945], [-166.425288, 64.686672], [-166.845004, 65.088896], [-168.11056, 65.669997], [-164.47471, 66.57666], [-163.652512, 66.57666], [-163.788602, 66.077207], [-161.677774, 66.11612], [-162.489715, 66.735565], [-163.719717, 67.116395], [-165.390287, 68.042772], [-166.764441, 68.358877], [-166.204707, 68.883031], [-164.430811, 68.915535], [-163.168614, 69.371115], [-162.930566, 69.858062], [-161.908897, 70.33333], [-159.039176, 70.891642], [-158.119723, 70.824721], [-156.580825, 71.357764], [-155.06779, 71.147776], [-154.344165, 70.696409], [-153.900006, 70.889989], [-152.210006, 70.829992], [-152.270002, 70.600006], [-150.739992, 70.430017], [-149.720003, 70.53001], [-144.920011, 69.989992], [-143.589446, 70.152514], [-140.985988, 69.711998]]], [[[-171.731657, 63.782515], [-171.114434, 63.592191], [-170.491112, 63.694975], [-168.689439, 63.297506], [-169.52944, 62.976931], [-170.671386, 63.375822], [-171.553063, 63.317789], [-171.791111, 63.405846], [-171.731657, 63.782515]]]]}}, {"type": "Feature", "id": "conus", "properties": {"preset_id": "conus", "name": "Continental US"}, "geometry": {"type": "Polygon", "coordinates": [[[-122.84, 49.0], [-95.15907, 49.0], [-95.15609, 49.38425], [-94.81758, 49.38905], [-94.64, 48.84], [-94.32914, 48.67074], [-92.61, 48.45], [-91.64, 48.14], [-90.83, 48.27], [-89.272917, 48.019808], [-88.378114, 48.302918], [-84.87608, 46.900083], [-84.779238, 46.637102], [-84.543749, 46.538684], [-84.6049, 46.4396], [-84.14212, 46.512226], [-83.890765, 46.116927], [-83.469551, 45.994686], [-83.592851, 45.816894], [-82.550925, 45.347517], [-82.137642, 43.571088], [-83.12, 42.08], [-83.02981, 41.832796], [-82.690089, 41.675105], [-78.939362, 42.863611], [-79.171674, 43.466339], [-78.72028, 43.625089], [-76.820034, 43.628784], [-76.5, 44.018459], [-74.867, 45.00048], [-71.50506, 45.0082], [-71.405, 45.255], [-70.66, 45.46], [-69.99997, 46.69307], [-69.237216, 47.447781], [-68.905, 47.185], [-68.23444, 47.35486], [-67.79046, 47.06636], [-67.79134, 45.70281], [-66.96466, 44.8097], [-70.11617, 43.68405], [-70.81489, 42.8653], [-70.825, 42.335], [-70.495, 41.805], [-70.08, 41.78], [-70.185, 42.145], [-69.88497, 41.92283], [-69.96503, 41.63717], [-72.87643, 41.22065], [-73.71, 40.931102], [-72.24126, 41.11948], [-71.945, 40.93], [-73.345, 40.63], [-73.982, 40.628], [-73.952325, 40.75075], [-74.25671, 40.47351], [-73.96244, 40.42763], [-74.17838, 39.70926], [-74.90604, 38.93954], [-74.98041, 39.1964], [-75.52805, 39.4985], [-75.32, 38.96], [-75.071835, 38.782032], [-75.05673, 38.40412], [-75.94023, 37.21689], [-75.72205, 37.93705], [-76.23287, 38.319215], [-76.35, 39.15], [-76.542725, 38.717615], [-76.32933, 38.08326], [-76.989998, 38.239992], [-76.30162, 37.917945], [-76.25874, 36.9664], [-75.9718, 36.89726], [-75.72749, 35.55074], [-76.36318, 34.80854], [-77.397635, 34.51201], [-78.05496, 33.92547], [-78.55435, 33.86133], [-79.06067, 33.49395], [-79.20357, 33.15839], [-80.301325, 32.509355], [-81.33629, 31.44049], [-81.49042, 30.72999], [-81.31371, 30.03552], [-80.535585, 28.47213], [-80.53, 28.04], [-80.056539, 26.88], [-80.13156, 25.816775], [-80.38103, 25.20616], [-80.68, 25.08], [-81.17213, 25.20126], [-81.33, 25.64], [-81.71, 25.87], [-82.85526, 27.88624], [-82.65, 28.55], [-82.93, 29.1], [-83.70959, 29.93656], [-84.1, 30.09], [-85.10882, 29.63615], [-85.7731, 30.15261], [-86.4, 30.4], [-87.53036, 30.27433], [-88.41782, 30.3849], [-89.593831, 30.159994], [-89.413735, 29.89419], [-89.43, 29.48864], [-89.21767, 29.29108], [-89.40823, 29.15961], [-89.77928, 29.30714], [-90.15463, 29.11743], [-90.880225, 29.148535], [-91.626785, 29.677], [-92.49906, 29.5523], [-93.22637, 29.78375], [-94.69, 29.48], [-95.60026, 28.73863], [-96.59404, 28.30748], [-97.14, 27.83], [-97.37, 27.38], [-97.38, 26.69], [-97.14, 25.87], [-97.53, 25.84], [-99.02, 26.37], [-99.52, 27.54], [-100.11, 28.11], [-100.9576, 29.38071], [-101.6624, 29.7793], [-102.48, 29.76], [-103.11, 28.97], [-103.94, 29.27], [-104.45697, 29.57196], [-105.03737, 30.64402], [-106.50759, 31.75452], [-108.24, 31.754854], [-108.24194, 31.34222], [-111.02361, 31.33472], [-114.815, 32.52528], [-114.72139, 32.72083], [-117.12776, 32.53534], [-117.295938, 33.046225], [-117.944, 33.621236], [-118.410602, 33.740909], [-118.519895, 34.027782], [-119.081, 34.078], [-119.438841, 34.348477], [-120.36778, 34.44711], [-120.62286, 34.60855], [-120.74433, 35.15686], [-121.71457, 36.16153], [-122.54747, 37.55176], [-122.51201, 37.78339], [-123.7272, 38.95166], [-123.86517, 39.76699], [-124.39807, 40.3132], [-124.17886, 41.14202], [-124.2137, 41.99964], [-124.53284, 42.76599], [-124.14214, 43.70838], [-123.89893, 45.52341], [-124.079635, 46.86475], [-124.68721, 48.184433], [-124.566101, 48.379715], [-123.12, 48.04], [-122.58736, 47.096], [-122.34, 47.36], [-122.84, 49.0]]]}}, {"type": "Feature", "id": "north america", "properties": {"preset_id": "north america", "name": "North America"}, "geometry": {"type": "MultiPolygon", "coordinates": [[[[-154.80741, 19.50871], [-155.93665, 19.05939], [-155.86108, 20.26721], [-154.80741, 19.50871]]], [[[-156.61258, 21.01249], [-156.25711, 20.91745], [-155.99566, 20.76404], [-156.41445, 20.57241], [-156.61258, 21.01249]]], [[[-156.78933, 21.06873], [-157.25027, 21.21958], [-156.75824, 21.17684], [-156.78933, 21.06873]]], [[[-158.12667, 21.31244], [-158.0252, 21.71696], [-157.65283, 21.32217], [-158.12667, 21.31244]]], [[[-159.36569, 22.21494], [-159.46372, 21.88299], [-159.80051, 22.06533], [-159.5962, 22.23618], [-159.36569, 22.21494]]], [[[-97.140008, 25.869997], [-97.872367, 22.444212], [-97.189333, 20.635433], [-95.900885, 18.828024], [-94.839063, 18.562717], [-94.42573, 18.144371], [-91.407903, 18.876083], [-90.77187, 19.28412], [-90.278618, 20.999855], [-87.05189, 21.543543], [-86.845908, 20.849865], [-87.621054, 19.646553], [-87.43675, 19.472403], [-87.837191, 18.259816], [-88.300031, 18.499982], [-88.355428, 16.530774], [-88.930613, 15.887273], [-88.121153, 15.688655], [-84.983722, 15.995923], [-83.410381, 15.270903], [-83.182126, 14.310703], [-83.85547, 11.373311], [-83.40232, 10.395438], [-82.207586, 8.995575], [-81.439287, 8.786234], [-79.573303, 9.61161], [-78.055928, 9.24773], [-77.353361, 8.670505], [-77.431108, 7.638061], [-77.753414, 7.70984], [-77.881571, 7.223771], [-78.429161, 8.052041], [-78.182096, 8.319182], [-79.120307, 8.996092], [-80.382659, 8.298409], [-80.00369, 7.547524], [-80.886401, 7.220541], [-81.059543, 7.817921], [-81.519515, 7.70661], [-81.721311, 8.108963], [-82.820081, 8.290864], [-82.850958, 8.073823], [-83.508437, 8.446927], [-83.632642, 9.051386], [-84.97566, 10.086723], [-85.110923, 9.55704], [-85.660787, 9.933347], [-85.659314, 10.754331], [-85.941725, 10.895278], [-85.71254, 11.088445], [-87.668493, 12.90991], [-87.316654, 12.984686], [-87.489409, 13.297535], [-88.483302, 13.163951], [-91.23241, 13.927832], [-93.359464, 15.61543], [-94.691656, 16.200975], [-96.557434, 15.653515], [-100.829499, 17.171071], [-101.918528, 17.91609], [-103.50099, 18.292295], [-105.493038, 19.946767], [-105.731396, 20.434102], [-105.397773, 20.531719], [-105.265817, 21.422104], [-106.028716, 22.773752], [-108.401905, 25.172314], [-109.260199, 25.580609], [-109.291644, 26.442934], [-110.391732, 27.162115], [-110.641019, 27.859876], [-111.178919, 27.941241], [-112.228235, 28.954409], [-113.148669, 31.170966], [-114.776451, 31.799532], [-114.673899, 30.162681], [-111.616489, 26.662817], [-110.655049, 24.298595], [-110.172856, 24.265548], [-109.433392, 23.185588], [-110.031392, 22.823078], [-110.295071, 23.430973], [-112.182036, 24.738413], [-112.300711, 26.012004], [-115.055142, 27.722727], [-114.570366, 27.741485], [-114.162018, 28.566112], [-115.518654, 29.556362], [-117.295938, 33.046225], [-118.519895, 34.027782], [-120.62286, 34.60855], [-120.74433, 35.15686], [-121.71457, 36.16153], [-122.51201, 37.78339], [-123.7272, 38.95166], [-123.86517, 39.76699], [-124.39807, 40.3132], [-124.2137, 41.99964], [-124.53284, 42.76599], [-123.89893, 45.52341], [-124.079635, 46.86475], [-124.68721, 48.184433], [-124.566101, 48.379715], [-123.12, 48.04], [-122.58736, 47.096], [-122.34, 47.36], [-122.84, 49.0], [-125.62461, 50.41656], [-127.43561, 50.83061], [-127.99276, 51.71583], [-127.85032, 52.32961], [-129.12979, 52.75538], [-129.30523, 53.56159], [-130.51497, 54.28757], [-130.536109, 54.802754], [-131.967211, 55.497776], [-132.250011, 56.369996], [-133.539181, 57.178887], [-134.078063, 58.123068], [-136.628062, 58.212209], [-139.867787, 59.537762], [-142.574444, 60.084447], [-143.958881, 59.99918], [-147.114374, 60.884656], [-148.224306, 60.672989], [-148.018066, 59.978329], [-151.716393, 59.155821], [-151.859433, 59.744984], [-151.409719, 60.725803], [-150.346941, 61.033588], [-150.621111, 61.284425], [-154.019172, 59.350279], [-153.287511, 58.864728], [-154.232492, 58.146374], [-156.308335, 57.422774], [-156.556097, 56.979985], [-158.117217, 56.463608], [-158.433321, 55.994154], [-164.785569, 54.404173], [-164.942226, 54.572225], [-161.804175, 55.894986], [-160.563605, 56.008055], [-157.72277, 57.570001], [-157.041675, 58.918885], [-158.517218, 58.787781], [-159.058606, 58.424186], [-159.711667, 58.93139], [-159.981289, 58.572549], [-160.355271, 59.071123], [-161.968894, 58.671665], [-161.874171, 59.633621], [-162.518059, 59.989724], [-163.818341, 59.798056], [-165.346388, 60.507496], [-165.350832, 61.073895], [-166.121379, 61.500019], [-165.734452, 62.074997], [-164.562508, 63.146378], [-163.067224, 63.059459], [-162.260555, 63.541936], [-160.772507, 63.766108], [-160.958335, 64.222799], [-161.518068, 64.402788], [-160.777778, 64.788604], [-162.757786, 64.338605], [-164.96083, 64.446945], [-166.425288, 64.686672], [-168.11056, 65.669997], [-164.47471, 66.57666], [-163.652512, 66.57666], [-163.788602, 66.077207], [-161.677774, 66.11612], [-165.390287, 68.042772], [-166.764441, 68.358877], [-166.204707, 68.883031], [-164.430811, 68.915535], [-163.168614, 69.371115], [-162.930566, 69.858062], [-161.908897, 70.33333], [-158.119723, 70.824721], [-156.580825, 71.357764], [-155.06779, 71.147776], [-154.344165, 70.696409], [-152.210006, 70.829992], [-152.270002, 70.600006], [-150.739992, 70.430017], [-144.920011, 69.989992], [-143.589446, 70.152514], [-136.50358, 68.89804], [-134.41464, 69.62743], [-132.92925, 69.50534], [-129.79471, 70.19369], [-129.10773, 69.77927], [-128.36156, 70.01286], [-128.13817, 70.48384], [-125.75632, 69.48058], [-124.42483, 70.1584], [-124.28968, 69.39969], [-122.6835, 69.85553], [-121.47226, 69.79778], [-117.60268, 69.01128], [-115.2469, 68.90591], [-113.89794, 68.3989], [-115.30489, 67.90261], [-113.49727, 67.68815], [-109.94619, 67.98104], [-108.8802, 67.38144], [-107.79239, 67.88736], [-108.81299, 68.31164], [-108.16721, 68.65392], [-106.15, 68.8], [-104.33791, 68.018], [-103.22115, 68.09775], [-101.45433, 67.64689], [-98.4432, 67.78165], [-98.5586, 68.40394], [-97.66948, 68.57864], [-96.11991, 68.23939], [-96.12588, 67.29338], [-95.48943, 68.0907], [-94.685, 68.06383], [-94.23282, 69.06903], [-96.47131, 70.08976], [-96.39115, 71.19482], [-95.2088, 71.92053], [-93.88997, 71.76015], [-91.51964, 70.19129], [-92.40692, 69.69997], [-90.5471, 69.49766], [-90.55151, 68.47499], [-89.21515, 69.25873], [-88.01966, 68.61508], [-88.31749, 67.87338], [-87.35017, 67.19872], [-85.57664, 68.78456], [-85.52197, 69.88211], [-82.62258, 69.65826], [-81.28043, 69.16202], [-81.2202, 68.66567], [-81.96436, 68.13253], [-81.25928, 67.59716], [-81.38653, 67.11078], [-83.34456, 66.41154], [-84.73542, 66.2573], [-85.76943, 66.55833], [-87.32324, 64.77563], [-88.48296, 64.09897], [-89.91444, 64.03273], [-90.70398, 63.61017], [-90.77004, 62.96021], [-91.93342, 62.83508], [-94.24153, 60.89865], [-94.62931, 60.11021], [-94.6846, 58.94882], [-93.21502, 58.78212], [-92.29703, 57.08709], [-90.89769, 57.28468], [-85.01181, 55.3026], [-82.27285, 55.14832], [-82.4362, 54.28227], [-82.12502, 53.27703], [-81.40075, 52.15788], [-79.91289, 51.20842], [-79.14301, 51.53393], [-78.60191, 52.56208], [-79.12421, 54.14145], [-79.82958, 54.66772], [-78.22874, 55.13645], [-76.54137, 56.53423], [-76.62319, 57.20263], [-77.30226, 58.05209], [-78.51688, 58.80458], [-77.33676, 59.85261], [-78.10687, 62.31964], [-77.41067, 62.55053], [-74.6682, 62.18111], [-73.83988, 62.4438], [-71.67708, 61.52535], [-71.37369, 61.13717], [-69.59042, 61.06141], [-69.2879, 58.95736], [-68.37455, 58.80106], [-67.64976, 58.21206], [-66.20178, 58.76731], [-64.58352, 60.33558], [-61.39655, 56.96745], [-61.79866, 56.33945], [-59.56962, 55.20407], [-57.3332, 54.6265], [-56.93689, 53.78032], [-55.75632, 53.27036], [-55.68338, 52.14664], [-57.12691, 51.41972], [-58.77482, 51.0643], [-60.03309, 50.24277], [-66.39905, 50.22897], [-67.23631, 49.51156], [-68.51114, 49.06836], [-71.10458, 46.82171], [-70.25522, 46.98606], [-68.65, 48.3], [-66.55243, 49.1331], [-65.05626, 49.23278], [-64.17099, 48.74248], [-65.11545, 48.07085], [-64.47219, 46.23849], [-63.17329, 45.73902], [-61.52072, 45.88377], [-60.51815, 47.00793], [-60.4486, 46.28264], [-59.80287, 45.9204], [-64.24656, 44.26553], [-65.36406, 43.54523], [-66.1234, 43.61867], [-66.16173, 44.46512], [-64.42549, 45.29204], [-67.13741, 45.13753], [-66.96466, 44.8097], [-70.11617, 43.68405], [-70.645476, 43.090238], [-70.825, 42.335], [-70.495, 41.805], [-70.08, 41.78], [-70.185, 42.145], [-69.88497, 41.92283], [-69.96503, 41.63717], [-73.71, 40.931102], [-71.945, 40.93], [-73.952325, 40.75075], [-74.25671, 40.47351], [-73.96244, 40.42763], [-74.17838, 39.70926], [-74.90604, 38.93954], [-75.52805, 39.4985], [-75.05673, 38.40412], [-75.94023, 37.21689], [-75.72205, 37.93705], [-76.23287, 38.319215], [-76.35, 39.15], [-76.542725, 38.717615], [-76.32933, 38.08326], [-76.989998, 38.239992], [-76.30162, 37.917945], [-75.72749, 35.55074], [-76.36318, 34.80854], [-79.06067, 33.49395], [-81.33629, 31.44049], [-81.31371, 30.03552], [-80.056539, 26.88], [-80.38103, 25.20616], [-81.17213, 25.20126], [-81.71, 25.87], [-82.85526, 27.88624], [-82.65, 28.55], [-83.70959, 29.93656], [-84.1, 30.09], [-85.10882, 29.63615], [-86.4, 30.4], [-88.41782, 30.3849], [-89.593831, 30.159994], [-89.21767, 29.29108], [-89.40823, 29.15961], [-90.880225, 29.148535], [-91.626785, 29.677], [-93.22637, 29.78375], [-94.69, 29.48], [-97.14, 27.83], [-97.38, 26.69], [-97.14, 25.87], [-97.53, 25.84], [-97.140008, 25.869997]]], [[[-128.059336, 49.994959], [-128.358414, 50.770648], [-125.755007, 50.295018], [-123.510002, 48.510011], [-124.012891, 48.370846], [-125.655013, 48.825005], [-127.029993, 49.814996], [-128.059336, 49.994959]]], [[[-131.179043, 52.180433], [-133.054611, 53.411469], [-133.180004, 54.169975], [-131.74999, 54.120004], [-132.04948, 52.984621], [-131.179043, 52.180433]]], [[[-154.670993, 57.461196], [-153.228729, 57.968968], [-152.141147, 57.591059], [-154.00509, 56.734677], [-154.516403, 56.992749], [-154.670993, 57.461196]]], [[[-167.455277, 60.213069], [-165.67443, 60.293607], [-165.579164, 59.909987], [-166.19277, 59.754441], [-167.455277, 60.213069]]], [[[-169.52944, 62.976931], [-170.671386, 63.375822], [-171.553063, 63.317789], [-171.731657, 63.782515], [-168.689439, 63.297506], [-169.52944, 62.976931]]], [[[-101.08929, 69.58447], [-102.73116, 69.50402], [-102.09329, 69.11962], [-102.43024, 68.75282], [-105.96, 69.18], [-113.3132, 68.53554], [-113.85496, 69.00744], [-116.10794, 69.16821], [-117.34, 69.96], [-112.4161, 70.36638], [-117.9048, 70.54056], [-118.43238, 70.9092], [-116.11311, 71.30918], [-119.40199, 71.55859], [-117.86642, 72.70594], [-115.18909, 73.31459], [-114.16717, 73.12145], [-114.66634, 72.65277], [-112.44102, 72.9554], [-111.05039, 72.4504], [-109.92035, 72.96113], [-109.00654, 72.63335], [-108.18835, 71.65089], [-107.68599, 72.06548], [-108.39639, 73.08953], [-107.51645, 73.23598], [-105.40246, 72.67259], [-104.46476, 70.99297], [-100.98078, 70.02432], [-101.08929, 69.58447]]], [[[-119.22, 72.52], [-120.46, 71.82], [-120.46, 71.383602], [-123.09219, 70.90164], [-123.62, 71.34], [-125.928949, 71.868688], [-123.94, 73.68], [-124.91775, 74.29275], [-121.53788, 74.44893], [-117.55564, 74.18577], [-115.51081, 73.47519], [-119.22, 72.52]]], [[[-106.94, 73.46], [-105.26, 73.64], [-104.5, 73.42], [-105.38, 72.76], [-106.94, 73.46]]], [[[-106.31347, 75.00527], [-113.74381, 74.39427], [-113.87135, 74.72029], [-111.79421, 75.1625], [-117.7104, 75.2222], [-116.34602, 76.19903], [-115.40487, 76.47887], [-109.0671, 75.47321], [-110.49726, 76.42982], [-109.5811, 76.79417], [-108.54859, 76.67832], [-107.81943, 75.84552], [-105.881, 75.9694], [-105.70498, 75.47951], [-106.31347, 75.00527]]], [[[-116.335813, 76.876962], [-119.899318, 76.053213], [-122.854925, 76.116543], [-119.103939, 77.51222], [-116.198587, 77.645287], [-116.335813, 76.876962]]], [[[-111.264443, 78.152956], [-109.854452, 77.996325], [-110.186938, 77.697015], [-112.051191, 77.409229], [-113.534279, 77.732207], [-111.264443, 78.152956]]], [[[-99.670939, 77.907545], [-105.176133, 78.380332], [-104.210429, 78.67742], [-105.41958, 78.918336], [-105.492289, 79.301594], [-100.825158, 78.800462], [-99.670939, 77.907545]]], [[[-111.50001, 78.849994], [-109.663146, 78.601973], [-112.542091, 78.407902], [-111.50001, 78.849994]]], [[[-83.06857, 62.15922], [-83.99367, 62.4528], [-83.25048, 62.91409], [-81.87699, 62.90458], [-83.06857, 62.15922]]], [[[-80.99102, 63.411246], [-82.547178, 63.651722], [-83.108798, 64.101876], [-85.523405, 63.052379], [-85.866769, 63.637253], [-87.221983, 63.541238], [-86.35276, 64.035833], [-85.883848, 65.738778], [-85.161308, 65.657285], [-84.975764, 65.217518], [-84.464012, 65.371772], [-81.642014, 64.455136], [-81.55344, 63.979609], [-80.817361, 64.057486], [-80.103451, 63.725981], [-80.99102, 63.411246]]], [[[-99.797401, 69.40003], [-98.218261, 70.14354], [-95.647681, 69.10769], [-96.269521, 68.75704], [-99.797401, 69.40003]]], [[[-98.05359, 72.99052], [-96.54, 72.56], [-96.72, 71.66], [-99.32286, 71.35639], [-102.5, 72.51], [-102.48, 72.83], [-100.43836, 72.70588], [-101.54, 73.36], [-100.35642, 73.84389], [-97.38, 73.76], [-97.12, 73.47], [-98.05359, 72.99052]]], [[[-95.409856, 72.061881], [-96.033745, 72.940277], [-96.018268, 73.43743], [-95.495793, 73.862417], [-94.503658, 74.134907], [-90.509793, 73.856732], [-92.003965, 72.966244], [-93.196296, 72.771992], [-94.269047, 72.024596], [-95.409856, 72.061881]]], [[[-94.85082, 75.647218], [-93.612756, 74.979997], [-94.156909, 74.592347], [-96.820932, 74.927623], [-96.288587, 75.377828], [-94.85082, 75.647218]]], [[[-93.893824, 76.319244], [-97.121379, 76.751078], [-96.745123, 77.161389], [-91.605023, 76.778518], [-90.741846, 76.449597], [-90.969661, 76.074013], [-89.187083, 75.610166], [-81.128531, 75.713983], [-80.057511, 75.336849], [-79.833933, 74.923127], [-81.948843, 74.442459], [-89.764722, 74.515555], [-92.422441, 74.837758], [-92.889906, 75.882655], [-93.893824, 76.319244]]], [[[-100.88366, 75.05736], [-100.86292, 75.64075], [-102.50209, 75.5638], [-102.56552, 76.3366], [-98.5, 76.72], [-97.735585, 76.25656], [-98.16, 75.0], [-100.88366, 75.05736]]], [[[-93.840003, 77.519997], [-96.169654, 77.555111], [-96.436304, 77.834629], [-94.422577, 77.820005], [-93.840003, 77.519997]]], [[[-98.631984, 78.87193], [-96.754399, 78.765813], [-95.559278, 78.418315], [-95.830295, 78.056941], [-97.309843, 77.850597], [-98.124289, 78.082857], [-98.631984, 78.87193]]], [[[-91.13289, 80.72345], [-87.81, 80.32], [-87.02, 79.66], [-85.81435, 79.3369], [-89.03535, 78.28723], [-92.87669, 78.34333], [-93.95116, 78.75099], [-93.93574, 79.11373], [-93.14524, 79.3801], [-94.974, 79.37248], [-96.70972, 80.15777], [-95.32345, 80.90729], [-94.29843, 80.97727], [-94.73542, 81.20646], [-92.40984, 81.25739], [-91.13289, 80.72345]]], [[[-61.95, 10.09], [-61.68, 10.76], [-60.895, 10.855], [-60.935, 10.11], [-61.95, 10.09]]], [[[-77.766023, 17.861597], [-78.337719, 18.225968], [-78.217727, 18.454533], [-76.896619, 18.400867], [-76.199659, 17.886867], [-77.766023, 17.861597]]], [[[-67.242428, 18.37446], [-66.282434, 18.514762], [-65.591004, 18.228035], [-65.847164, 17.975906], [-67.184162, 17.946553], [-67.242428, 18.37446]]], [[[-69.76925, 19.293267], [-69.222126, 19.313214], [-69.254346, 19.015196], [-68.317943, 18.612198], [-68.689316, 18.205142], [-69.952934, 18.428307], [-70.517137, 18.184291], [-70.669298, 18.426886], [-71.40021, 17.598564], [-71.708305, 18.044997], [-72.372476, 18.214961], [-73.922433, 18.030993], [-74.458034, 18.34255], [-74.369925, 18.664908], [-72.694937, 18.445799], [-72.334882, 18.668422], [-72.784105, 19.483591], [-73.415022, 19.639551], [-73.189791, 19.915684], [-70.806706, 19.880286], [-69.950815, 19.648], [-69.76925, 19.293267]]], [[[-78.347434, 22.512166], [-76.523825, 21.20682], [-75.598222, 21.016624], [-75.67106, 20.735091], [-74.178025, 20.284628], [-74.296648, 20.050379], [-77.755481, 19.855481], [-77.085108, 20.413354], [-78.137292, 20.739949], [-78.719867, 21.598114], [-82.169992, 22.387109], [-81.795002, 22.636965], [-82.775898, 22.68815], [-84.052151, 21.910575], [-84.974911, 21.896028], [-83.77824, 22.788118], [-82.268151, 23.188611], [-80.618769, 23.10598], [-79.281486, 22.399202], [-78.347434, 22.512166]]], [[[-78.40848, 24.57564], [-78.19087, 25.2103], [-77.89, 25.17], [-77.53466, 23.75975], [-77.78, 23.71], [-78.40848, 24.57564]]], [[[-77.79, 27.04], [-77.0, 26.59], [-77.17255, 25.87918], [-77.34, 26.53], [-77.79, 27.04]]], [[[-78.98, 26.79], [-77.85, 26.84], [-77.82, 26.58], [-78.91, 26.42], [-78.98, 26.79]]], [[[-62.87433, 45.96818], [-64.39261, 46.72747], [-64.01486, 47.03601], [-63.6645, 46.55001], [-62.01208, 46.44314], [-62.87433, 45.96818]]], [[[-54.935143, 49.313011], [-54.473775, 49.556691], [-53.476549, 49.249139], [-53.786014, 48.516781], [-53.086134, 48.687804], [-52.648099, 47.535548], [-53.069158, 46.655499], [-54.178936, 46.807066], [-53.961869, 47.625207], [-54.240482, 47.752279], [-55.400773, 46.884994], [-55.997481, 46.91972], [-55.291219, 47.389562], [-56.250799, 47.632545], [-59.266015, 47.603348], [-59.419494, 47.899454], [-58.796586, 48.251525], [-59.231625, 48.523188], [-58.391805, 49.125581], [-57.35869, 50.718274], [-55.870977, 51.632094], [-55.406974, 51.588273], [-56.795882, 49.812309], [-56.143105, 50.150117], [-55.471492, 49.935815], [-55.822401, 49.587129], [-54.935143, 49.313011]]], [[[-63.58926, 49.40069], [-64.51912, 49.87304], [-62.85829, 49.70641], [-61.806305, 49.10506], [-63.58926, 49.40069]]], [[[-80.36215, 62.01649], [-79.92939, 62.3856], [-79.26582, 62.158675], [-79.65752, 61.63308], [-80.36215, 62.01649]]], [[[-75.1145, 68.01036], [-75.21597, 67.44425], [-75.86588, 67.14886], [-76.98687, 67.09873], [-77.2364, 67.58809], [-76.81166, 68.14856], [-75.89521, 68.28721], [-75.1145, 68.01036]]], [[[-71.200015, 70.920013], [-68.786054, 70.525024], [-66.969033, 69.186087], [-68.805123, 68.720198], [-64.862314, 67.847539], [-63.424934, 66.928473], [-61.851981, 66.862121], [-62.163177, 66.160251], [-63.918444, 64.998669], [-66.721219, 66.388041], [-68.015016, 66.262726], [-68.141287, 65.689789], [-65.320168, 64.382737], [-64.669406, 63.392927], [-65.013804, 62.674185], [-68.783186, 63.74567], [-66.165568, 61.930897], [-71.023437, 62.910708], [-72.235379, 63.397836], [-71.886278, 63.679989], [-74.834419, 64.679076], [-74.818503, 64.389093], [-77.70998, 64.229542], [-78.555949, 64.572906], [-77.897281, 65.309192], [-73.959795, 65.454765], [-74.293883, 65.811771], [-72.651167, 67.284576], [-72.92606, 67.726926], [-74.843307, 68.554627], [-76.869101, 68.894736], [-76.228649, 69.147769], [-77.28737, 69.76954], [-78.957242, 70.16688], [-81.305471, 69.743185], [-88.681713, 70.410741], [-89.51342, 70.762038], [-88.467721, 71.218186], [-89.888151, 71.222552], [-90.20516, 72.235074], [-89.436577, 73.129464], [-88.408242, 73.537889], [-85.826151, 73.803816], [-86.562179, 73.157447], [-85.774371, 72.534126], [-84.850112, 73.340278], [-82.31559, 73.750951], [-80.600088, 72.716544], [-80.748942, 72.061907], [-77.824624, 72.749617], [-74.228616, 71.767144], [-74.099141, 71.33084], [-72.242226, 71.556925], [-71.200015, 70.920013]]], [[[-20.84539, 82.72669], [-22.69182, 82.34165], [-31.9, 82.2], [-24.84448, 81.78697], [-22.90328, 82.09317], [-22.07175, 81.73449], [-23.16961, 81.15271], [-15.76818, 81.91245], [-12.77018, 81.71885], [-12.20855, 81.29154], [-16.85, 80.35], [-20.04624, 80.17708], [-17.73035, 80.12912], [-19.70499, 78.75128], [-19.67353, 77.63859], [-18.47285, 76.98565], [-21.67944, 76.62795], [-19.83407, 76.09808], [-19.59896, 75.24838], [-20.66818, 75.15585], [-19.37281, 74.29561], [-21.59422, 74.22382], [-20.43454, 73.81713], [-20.76234, 73.46436], [-23.56593, 73.30663], [-22.31311, 72.62928], [-22.29954, 72.18409], [-24.27834, 72.59788], [-24.79296, 72.3302], [-22.13281, 71.46898], [-21.75356, 70.66369], [-23.53603, 70.471], [-25.54341, 71.43094], [-25.20135, 70.75226], [-26.36276, 70.22646], [-22.34902, 70.12946], [-27.74737, 68.47046], [-31.77665, 68.12078], [-34.20196, 66.67974], [-36.35284, 65.9789], [-39.81222, 65.45848], [-40.66899, 64.83997], [-40.68281, 64.13902], [-41.1887, 63.48246], [-42.81938, 62.68233], [-42.41666, 61.90093], [-43.3784, 60.09772], [-44.7875, 60.03676], [-46.26364, 60.85328], [-48.26294, 60.85843], [-51.63325, 63.62691], [-52.14014, 64.27842], [-52.27659, 65.1767], [-53.66166, 66.09957], [-53.30161, 66.8365], [-53.96911, 67.18899], [-52.9804, 68.35759], [-51.47536, 68.72958], [-50.87122, 69.9291], [-53.45629, 69.283625], [-54.68336, 69.61003], [-54.75001, 70.28932], [-54.35884, 70.821315], [-51.39014, 70.56978], [-54.00422, 71.54719], [-55.83468, 71.65444], [-54.71819, 72.58625], [-57.32363, 74.71026], [-58.59679, 75.09861], [-58.58516, 75.51727], [-61.26861, 76.10238], [-68.50438, 76.06141], [-71.40257, 77.00857], [-66.76397, 77.37595], [-73.297, 78.04419], [-73.15938, 78.43271], [-65.7107, 79.39436], [-65.3239, 79.75814], [-68.02298, 80.11721], [-67.15129, 80.51582], [-62.23444, 81.3211], [-62.65116, 81.77042], [-60.28249, 82.03363], [-54.13442, 82.19962], [-53.04328, 81.88833], [-50.39061, 82.43883], [-44.523, 81.6607], [-46.9007, 82.19979], [-46.76379, 82.62796], [-43.40644, 83.22516], [-39.89753, 83.18018], [-38.62214, 83.54905], [-35.08787, 83.64513], [-27.10046, 83.51966], [-20.84539, 82.72669]]], [[[-76.251404, 72.826385], [-79.486252, 72.742203], [-80.876099, 73.333183], [-80.833885, 73.693184], [-78.064438, 73.651932], [-76.34, 73.102685], [-76.251404, 72.826385]]], [[[-83.18, 82.32], [-82.42, 82.86], [-81.1, 83.02], [-72.83153, 83.23324], [-61.85, 82.6286], [-61.89388, 82.36165], [-67.65755, 81.50141], [-65.48031, 81.50657], [-69.4697, 80.61683], [-71.18, 79.8], [-76.90773, 79.32309], [-75.52924, 79.19766], [-76.22046, 79.01907], [-75.39345, 78.52581], [-79.75951, 77.20968], [-79.61965, 76.98336], [-77.91089, 77.022045], [-77.88911, 76.777955], [-80.56125, 76.17812], [-89.49068, 76.47239], [-89.6161, 76.95213], [-87.76739, 77.17833], [-88.26, 77.9], [-84.97634, 77.53873], [-86.34, 78.18], [-87.96192, 78.37181], [-85.37868, 78.9969], [-85.09495, 79.34543], [-86.50734, 79.73624], [-86.93179, 80.25145], [-83.408696, 80.1], [-81.84823, 80.46442], [-87.59895, 80.51627], [-89.36663, 80.85569], [-91.36786, 81.5531], [-91.58702, 81.89429], [-85.5, 82.652273], [-83.18, 82.32]]]]}}, {"type": "Feature", "id": "south america", "properties": {"preset_id": "south america", "name": "South America"}, "geometry": {"type": "MultiPolygon", "coordinates": [[[[-68.639991, -55.580018], [-72.2639, -54.49514], [-74.66253, -52.83749], [-71.10773, -54.07433], [-70.26748, -52.93123], [-69.34565, -52.5183], [-68.63401, -52.63637], [-67.75, -53.85], [-65.05, -54.7], [-65.5, -55.2], [-66.45, -55.25], [-66.95992, -54.89681], [-67.29103, -55.30124], [-68.639991, -55.580018]]], [[[-69.461284, -52.291951], [-70.845102, -52.899201], [-71.006332, -53.833252], [-71.429795, -53.856455], [-74.946763, -52.262754], [-75.608015, -48.673773], [-75.18277, -47.711919], [-74.126581, -46.939253], [-75.644395, -46.647643], [-74.692154, -45.763976], [-74.351709, -44.103044], [-73.240356, -44.454961], [-72.717804, -42.383356], [-73.3889, -42.117532], [-73.701336, -43.365776], [-74.331943, -43.224958], [-73.677099, -39.942213], [-73.217593, -39.258689], [-73.588061, -37.156285], [-73.166717, -37.12378], [-71.43845, -32.418899], [-71.668721, -30.920645], [-71.370083, -30.095682], [-71.489894, -28.861442], [-70.905124, -27.64038], [-70.091246, -21.393319], [-70.372572, -18.347975], [-71.37525, -17.773799], [-71.462041, -17.363488], [-76.009205, -14.649286], [-76.423469, -13.823187], [-76.259242, -13.535039], [-79.760578, -7.194341], [-81.249996, -6.136834], [-80.926347, -5.690557], [-81.410943, -4.736765], [-79.770293, -2.657512], [-79.986559, -2.220794], [-80.368784, -2.685159], [-80.967765, -2.246943], [-80.933659, -1.057455], [-80.58337, -0.906663], [-80.09061, 0.768429], [-78.855259, 1.380924], [-78.990935, 1.69137], [-78.617831, 1.766404], [-78.42761, 2.629556], [-77.931543, 2.696606], [-77.12769, 3.849636], [-77.496272, 4.087606], [-77.318815, 5.845354], [-77.881571, 7.223771], [-77.753414, 7.70984], [-77.242566, 7.935278], [-77.474723, 8.524286], [-75.6746, 9.443248], [-75.480426, 10.61899], [-74.906895, 11.083045], [-73.414764, 11.227015], [-71.75409, 12.437303], [-71.137461, 12.112982], [-71.360006, 11.539994], [-71.94705, 11.423282], [-71.633064, 10.446494], [-72.074174, 9.865651], [-71.695644, 9.072263], [-71.264559, 9.137195], [-71.039999, 9.859993], [-71.400623, 10.968969], [-70.155299, 11.375482], [-70.293843, 11.846822], [-69.943245, 12.162307], [-69.5843, 11.459611], [-68.882999, 11.443385], [-68.194127, 10.554653], [-66.227864, 10.648627], [-64.890452, 10.077215], [-64.318007, 10.641418], [-61.880946, 10.715625], [-62.730119, 10.420269], [-62.388512, 9.948204], [-61.588767, 9.873067], [-60.830597, 9.38134], [-60.671252, 8.580174], [-60.150096, 8.602757], [-59.101684, 7.999202], [-58.482962, 7.347691], [-58.454876, 6.832787], [-57.147436, 5.97315], [-53.958045, 5.756548], [-54.478633, 4.896756], [-54.006931, 3.620038], [-54.524754, 2.311849], [-52.939657, 2.124858], [-51.657797, 4.156232], [-51.317146, 4.203491], [-50.508875, 1.901564], [-49.974076, 1.736483], [-49.947101, 1.04619], [-50.699251, 0.222984], [-50.388211, -0.078445], [-48.620567, -0.235489], [-48.584497, -1.237805], [-47.824956, -0.581618], [-44.905703, -1.55174], [-44.417619, -2.13775], [-44.581589, -2.691308], [-43.418791, -2.38311], [-41.472657, -2.912018], [-39.978665, -2.873054], [-37.223252, -4.820946], [-35.597796, -5.149504], [-35.235389, -5.464937], [-34.729993, -7.343221], [-35.128212, -8.996401], [-38.673887, -13.057652], [-39.267339, -17.867746], [-39.760823, -19.599113], [-40.774741, -20.904512], [-40.944756, -21.937317], [-41.754164, -22.370676], [-41.988284, -22.97007], [-44.647812, -23.351959], [-47.648972, -24.885199], [-48.495458, -25.877025], [-48.474736, -27.175912], [-48.888457, -28.674115], [-49.587329, -29.224469], [-50.696874, -30.984465], [-52.256081, -32.24537], [-53.806426, -34.396815], [-54.935866, -34.952647], [-56.215297, -34.859836], [-57.817861, -34.462547], [-58.427074, -33.909454], [-58.495442, -34.43149], [-57.22583, -35.288027], [-57.362359, -35.97739], [-56.737487, -36.413126], [-56.788285, -36.901572], [-57.749157, -38.183871], [-59.231857, -38.72022], [-62.335957, -38.827707], [-62.145994, -40.676897], [-62.745803, -41.028761], [-63.770495, -41.166789], [-64.73209, -40.802677], [-65.118035, -41.064315], [-64.978561, -42.058001], [-64.303408, -42.359016], [-63.755948, -42.043687], [-63.458059, -42.563138], [-65.181804, -43.495381], [-65.565269, -45.036786], [-66.509966, -45.039628], [-67.293794, -45.551896], [-67.580546, -46.301773], [-66.597066, -47.033925], [-65.641027, -47.236135], [-65.985088, -48.133289], [-67.166179, -48.697337], [-67.816088, -49.869669], [-69.138539, -50.73251], [-68.815561, -51.771104], [-68.149995, -52.349983], [-69.461284, -52.291951]]], [[[-57.75, -51.55], [-58.05, -51.9], [-59.4, -52.2], [-59.85, -51.85], [-60.7, -52.3], [-61.2, -51.85], [-60.0, -51.25], [-59.15, -51.5], [-58.55, -51.1], [-57.75, -51.55]]]]}}, {"type": "Feature", "id": "europe", "properties": {"preset_id": "europe", "name": "Europe"}, "geometry": {"type": "MultiPolygon", "coordinates": [[[[-53.554839, 2.334897], [-54.088063, 2.105557], [-54.524754, 2.311849], [-54.006931, 3.620038], [-54.478633, 4.896756], [-53.958045, 5.756548], [-52.882141, 5.409851], [-51.657797, 4.156232], [-52.939657, 2.124858], [-53.418465, 2.053389], [-53.554839, 2.334897]]], [[[-9.287464, 38.358486], [-9.446989, 39.392066], [-8.768684, 40.760639], [-8.984433, 42.592775], [-9.392884, 43.026625], [-7.97819, 43.748338], [-1.901351, 43.422802], [-1.384225, 44.02261], [-1.193798, 46.014918], [-2.963276, 47.570327], [-4.491555, 47.954954], [-4.59235, 48.68416], [-3.295814, 48.901692], [-1.616511, 48.644421], [-1.933494, 49.776342], [-0.989469, 49.347376], [1.338761, 50.127173], [1.639001, 50.946606], [3.830289, 51.620545], [4.705997, 53.091798], [7.100425, 53.693932], [8.121706, 53.527792], [8.800734, 54.020786], [8.120311, 55.517723], [8.089977, 56.540012], [8.543438, 57.110003], [10.580006, 57.730017], [10.25, 56.890016], [10.912182, 56.458621], [9.649985, 55.469999], [9.93958, 54.596642], [10.950112, 54.363607], [10.939467, 54.008693], [12.51844, 54.470371], [14.119686, 53.757029], [17.622832, 54.851536], [19.66064, 54.426084], [19.888481, 54.86616], [21.268449, 55.190482], [21.090424, 56.783873], [21.581866, 57.411871], [22.524341, 57.753374], [23.318453, 57.006236], [24.12073, 57.025693], [24.428928, 58.383413], [24.061198, 58.257375], [23.42656, 58.612753], [23.339795, 59.18724], [25.864189, 59.61109], [27.981127, 59.475373], [29.1177, 60.02805], [28.070002, 60.503519], [22.869695, 59.846373], [21.322244, 60.72017], [21.544866, 61.705329], [21.059211, 62.607393], [21.536029, 63.189735], [25.398068, 65.111427], [25.294043, 65.534346], [23.903379, 66.006927], [22.183173, 65.723741], [21.213517, 65.026005], [21.369631, 64.413588], [17.847779, 62.7494], [17.119555, 61.341166], [18.787722, 60.081914], [17.869225, 58.953766], [16.829185, 58.719827], [16.44771, 57.041118], [15.879786, 56.104302], [14.666681, 56.200885], [14.100721, 55.407781], [12.942911, 55.361737], [11.027369, 58.856149], [10.356557, 59.469807], [8.382, 58.313288], [7.048748, 58.078884], [5.665835, 58.588155], [4.992078, 61.970998], [5.9129, 62.614473], [8.553411, 63.454008], [10.527709, 64.486038], [14.761146, 67.810642], [19.184028, 69.817444], [21.378416, 70.255169], [23.023742, 70.202072], [24.546543, 71.030497], [28.165547, 71.185474], [31.293418, 70.453788], [30.005435, 70.186259], [31.101042, 69.558101], [32.13272, 69.90595], [33.77547, 69.30142], [36.51396, 69.06342], [41.05987, 67.45713], [41.12595, 66.79158], [38.38295, 65.99953], [33.91871, 66.75961], [33.18444, 66.63253], [34.81477, 65.90015], [34.94391, 64.41437], [37.01273, 63.84983], [37.14197, 64.33471], [36.539579, 64.76446], [37.17604, 65.14322], [39.59345, 64.52079], [40.4356, 64.76446], [39.7626, 65.49682], [42.09309, 66.47623], [43.94975, 66.06908], [44.53226, 66.75634], [43.69839, 67.35245], [44.18795, 67.95051], [43.45282, 68.57079], [46.25, 68.25], [46.82134, 67.68997], [45.55517, 67.56652], [45.56202, 67.01005], [46.34915, 66.66767], [47.89416, 66.88455], [48.13876, 67.52238], [53.71743, 68.85738], [54.47171, 68.80815], [53.48582, 68.20131], [54.72628, 68.09702], [55.44268, 68.43866], [57.31702, 68.46628], [58.802, 68.88082], [59.94142, 68.27844], [61.07784, 68.94069], [60.03, 69.52], [60.55, 69.85], [63.504, 69.54739], [68.51216, 68.09233], [69.18068, 68.61563], [68.13522, 69.35649], [66.93008, 69.45461], [67.25976, 69.92873], [66.69466, 71.02897], [68.54006, 71.9345], [69.19636, 72.84336], [69.94, 73.04], [72.58754, 72.77629], [72.79603, 72.22006], [71.84811, 71.40898], [72.47011, 71.09019], [72.79188, 70.39114], [72.5647, 69.02085], [73.66787, 68.4079], [73.2387, 67.7404], [71.28, 66.32], [72.42301, 66.17267], [73.92099, 66.78946], [74.18651, 67.28429], [75.052, 67.76047], [74.46926, 68.32899], [74.93584, 68.98918], [73.84236, 69.07146], [73.60187, 69.62763], [74.3998, 70.63175], [73.1011, 71.44717], [74.89082, 72.12119], [74.65926, 72.83227], [75.15801, 72.85497], [75.68351, 72.30056], [75.28898, 71.33556], [76.35911, 71.15287], [75.90313, 71.87401], [77.57665, 72.26717], [79.65202, 72.32011], [81.5, 71.75], [80.61071, 72.58285], [80.51109, 73.6482], [86.8223, 73.93688], [86.00956, 74.45967], [87.16682, 75.11643], [92.90058, 75.77333], [93.23421, 76.0472], [96.67821, 75.91548], [98.92254, 76.44689], [100.75967, 76.43028], [101.99084, 77.28754], [104.3516, 77.69792], [106.06664, 77.37389], [104.705, 77.1274], [106.97013, 76.97419], [107.24, 76.48], [111.07726, 76.71], [114.13417, 75.84764], [113.88539, 75.32779], [109.4, 74.18], [112.11919, 73.78774], [113.01954, 73.97693], [113.52958, 73.33505], [115.56782, 73.75285], [118.77633, 73.58772], [119.02, 73.12], [123.20066, 72.97122], [123.25777, 73.73503], [126.97644, 73.56549], [128.59126, 73.03871], [129.05157, 72.39872], [128.46, 71.98], [129.71599, 71.19304], [131.28858, 70.78699], [132.2535, 71.8363], [133.85766, 71.38642], [135.56193, 71.65525], [137.49755, 71.34763], [138.23409, 71.62803], [139.86983, 71.48783], [139.14791, 72.41619], [140.46817, 72.84941], [149.5, 72.2], [150.35118, 71.60643], [152.9689, 70.84222], [158.99779, 70.86672], [159.83031, 70.45324], [159.70866, 69.72198], [160.94053, 69.43728], [167.83567, 69.58269], [169.57763, 68.6938], [170.81688, 69.01363], [170.0082, 69.65276], [170.45345, 70.09703], [175.72403, 69.87725], [180.0, 68.963636], [180.0, 64.979709], [178.7072, 64.53493], [177.41128, 64.60821], [179.37034, 62.98262], [179.22825, 62.3041], [177.3643, 62.5219], [173.68013, 61.65261], [170.6985, 60.33618], [170.33085, 59.88177], [168.90046, 60.57355], [166.29498, 59.78855], [165.84, 60.16], [164.87674, 59.7316], [163.53929, 59.86871], [163.21711, 59.21101], [162.01733, 58.24328], [162.05297, 57.83912], [163.19191, 57.61503], [163.05794, 56.15924], [162.12958, 56.12219], [161.70146, 55.28568], [162.11749, 54.85514], [160.36877, 54.34433], [160.02173, 53.20257], [158.53094, 52.95868], [158.23118, 51.94269], [156.78979, 51.01105], [155.43366, 55.38103], [155.91442, 56.76792], [156.75815, 57.3647], [156.81035, 57.83204], [158.36433, 58.05575], [161.87204, 60.343], [163.66969, 61.1409], [164.47355, 62.55061], [163.25842, 62.46627], [162.65791, 61.6425], [160.12148, 60.54423], [159.30232, 61.77396], [156.72068, 61.43442], [154.21806, 59.75818], [155.04375, 59.14495], [151.26573, 58.78089], [151.33815, 59.50396], [149.78371, 59.65573], [148.54481, 59.16448], [145.48722, 59.33637], [142.19782, 59.03998], [135.12619, 54.72959], [136.70171, 54.60355], [137.19342, 53.97732], [138.1647, 53.75501], [138.80463, 54.25455], [139.90151, 54.18968], [141.34531, 53.08957], [141.37923, 52.23877], [140.59742, 51.23967], [140.06193, 48.44671], [138.21971, 46.30795], [134.86939, 43.39821], [133.53687, 42.81147], [132.90627, 42.79849], [132.27807, 43.28456], [130.78, 42.22], [130.633866, 42.903015], [131.144688, 42.92999], [131.288555, 44.11152], [131.02519, 44.96796], [131.883454, 45.321162], [133.09712, 45.14409], [135.026311, 48.47823], [132.50669, 47.78896], [130.98726, 47.79013], [130.582293, 48.729687], [129.397818, 49.4406], [127.6574, 49.76027], [125.946349, 52.792799], [125.068211, 53.161045], [123.57147, 53.4588], [121.003085, 53.251401], [120.177089, 52.753886], [120.725789, 52.516226], [120.7382, 51.96411], [119.27939, 50.58292], [119.288461, 50.142883], [117.879244, 49.510983], [116.678801, 49.888531], [115.485695, 49.805177], [114.362456, 50.248303], [112.89774, 49.543565], [110.662011, 49.130128], [108.475167, 49.282548], [106.888804, 50.274296], [103.676545, 50.089966], [102.25589, 50.51056], [102.06521, 51.25991], [98.861491, 52.047366], [97.82574, 51.010995], [98.231762, 50.422401], [97.25976, 49.72605], [94.815949, 50.013433], [94.147566, 50.480537], [92.234712, 50.802171], [88.805567, 49.470521], [87.35997, 49.214981], [86.829357, 49.826675], [85.54127, 49.692859], [83.383004, 51.069183], [81.945986, 50.812196], [80.568447, 51.388336], [80.03556, 50.864751], [77.800916, 53.404415], [76.525179, 54.177003], [76.8911, 54.490524], [74.38482, 53.54685], [73.425679, 53.48981], [73.508516, 54.035617], [72.22415, 54.376655], [71.180131, 54.133285], [70.865267, 55.169734], [69.068167, 55.38525], [65.178534, 54.354228], [61.4366, 54.00625], [60.978066, 53.664993], [61.699986, 52.979996], [60.739993, 52.719986], [60.927269, 52.447548], [59.967534, 51.96042], [61.588003, 51.272659], [61.337424, 50.79907], [59.932807, 50.842194], [59.642282, 50.545442], [58.36332, 51.06364], [56.77798, 51.04355], [55.71694, 50.62171], [52.328724, 51.718652], [50.766648, 51.692762], [48.702382, 50.605128], [48.577841, 49.87476], [47.54948, 50.454698], [46.466446, 48.394152], [47.31524, 47.71585], [48.05725, 47.74377], [48.694734, 47.075628], [48.59325, 46.56104], [49.10116, 46.39933], [48.64541, 45.80629], [47.67591, 45.64149], [46.68201, 44.6092], [47.59094, 43.66016], [47.49252, 42.98658], [48.58437, 41.80888], [47.815666, 41.151416], [45.7764, 42.09244], [45.470279, 42.502781], [43.93121, 42.55496], [42.3944, 43.2203], [39.955009, 43.434998], [36.67546, 45.24469], [37.40317, 45.40451], [38.23295, 46.24087], [37.67372, 46.63657], [39.14767, 47.04475], [39.1212, 47.26336], [34.962342, 46.273197], [35.020788, 45.651219], [36.529998, 45.46999], [36.334713, 45.113216], [33.882511, 44.361479], [33.326421, 44.564877], [33.546924, 45.034771], [32.454174, 45.327466], [33.588162, 45.851569], [33.298567, 46.080598], [31.74414, 46.333348], [31.675307, 46.706245], [30.748749, 46.5831], [29.626543, 45.035391], [28.837858, 44.913874], [28.558081, 43.707462], [27.673898, 42.577892], [27.99672, 42.007359], [27.135739, 42.141485], [26.117042, 41.826905], [26.604196, 41.562115], [26.056942, 40.824123], [23.714811, 40.687129], [24.407999, 40.124993], [23.342999, 39.960998], [22.813988, 40.476005], [22.626299, 40.256561], [23.350027, 39.190011], [22.973099, 38.970903], [24.025025, 38.219993], [24.040011, 37.655015], [23.115003, 37.920011], [23.409972, 37.409991], [22.774972, 37.30501], [23.154225, 36.422506], [21.670026, 36.844986], [21.120034, 38.310323], [19.406082, 40.250773], [19.371768, 41.877551], [16.015385, 43.507215], [15.174454, 44.243191], [15.37625, 44.317915], [14.901602, 45.07606], [14.258748, 45.233777], [13.952255, 44.802124], [13.656976, 45.136935], [13.93763, 45.591016], [13.141606, 45.736692], [12.328581, 45.381778], [12.261453, 44.600482], [12.589237, 44.091366], [13.526906, 43.587727], [14.029821, 42.761008], [15.14257, 41.95514], [15.926191, 41.961315], [16.169897, 41.740295], [15.889346, 41.541082], [18.480247, 40.168866], [18.293385, 39.810774], [17.73838, 40.277671], [16.869596, 40.442235], [16.448743, 39.795401], [17.17149, 39.4247], [17.052841, 38.902871], [16.635088, 38.843572], [16.100961, 37.985899], [15.684087, 37.908849], [16.109332, 38.964547], [15.413613, 40.048357], [13.627985, 41.188287], [12.106683, 41.704535], [10.511948, 42.931463], [10.200029, 43.920007], [8.888946, 44.366336], [6.529245, 43.128892], [4.556963, 43.399651], [3.100411, 43.075201], [3.039484, 41.89212], [2.091842, 41.226089], [0.810525, 41.014732], [-0.278711, 39.309978], [0.111291, 38.738514], [-0.467124, 38.292366], [-0.683389, 37.642354], [-1.438382, 37.443064], [-2.146453, 36.674144], [-4.368901, 36.677839], [-5.37716, 35.94685], [-5.866432, 36.029817], [-6.520191, 36.942913], [-8.898857, 36.868809], [-8.839998, 38.266243], [-9.287464, 38.358486]]], [[[8.428302, 39.171847], [8.159998, 40.950007], [9.210012, 41.209991], [9.809975, 40.500009], [9.669519, 39.177376], [8.806936, 38.906618], [8.428302, 39.171847]]], [[[8.544213, 42.256517], [9.390001, 43.009985], [9.560016, 42.152492], [9.229752, 41.380007], [8.775723, 41.583612], [8.544213, 42.256517]]], [[[-9.688525, 53.881363], [-7.572168, 55.131622], [-6.733847, 55.17286], [-5.661949, 54.554603], [-6.197885, 53.867565], [-6.032985, 53.153164], [-6.788857, 52.260118], [-8.561617, 51.669301], [-9.977086, 51.820455], [-9.166283, 52.864629], [-9.688525, 53.881363]]], [[[-5.082527, 55.061601], [-4.719112, 55.508473], [-5.047981, 55.783986], [-5.586398, 55.311146], [-5.644999, 56.275015], [-6.149981, 56.78501], [-5.786825, 57.818848], [-5.009999, 58.630013], [-3.005005, 58.635], [-4.073828, 57.553025], [-1.959281, 57.6848], [-2.219988, 56.870017], [-3.119003, 55.973793], [-2.085009, 55.909998], [-1.114991, 54.624986], [-0.430485, 54.464376], [0.469977, 52.929999], [1.681531, 52.73952], [1.559988, 52.099998], [1.050562, 51.806761], [1.449865, 51.289428], [0.550334, 50.765739], [-2.489998, 50.500019], [-2.956274, 50.69688], [-3.617448, 50.228356], [-4.542508, 50.341837], [-5.245023, 49.96], [-5.776567, 50.159678], [-4.30999, 51.210001], [-3.414851, 51.426009], [-4.984367, 51.593466], [-5.267296, 51.9914], [-4.222347, 52.301356], [-4.770013, 52.840005], [-4.579999, 53.495004], [-3.09208, 53.404441], [-2.945009, 53.985], [-3.630005, 54.615013], [-5.082527, 55.061601]]], [[[12.690006, 55.609991], [12.089991, 54.800015], [11.043543, 55.364864], [10.903914, 55.779955], [12.370904, 56.111407], [12.690006, 55.609991]]], [[[-17.794438, 63.678749], [-22.762972, 63.960179], [-21.778484, 64.402116], [-23.955044, 64.89113], [-22.184403, 65.084968], [-22.227423, 65.378594], [-24.326184, 65.611189], [-23.650515, 66.262519], [-22.134922, 66.410469], [-20.576284, 65.732112], [-19.056842, 66.276601], [-17.798624, 65.993853], [-16.167819, 66.526792], [-14.508695, 66.455892], [-14.739637, 65.808748], [-13.609732, 65.126671], [-14.909834, 64.364082], [-17.794438, 63.678749]]], [[[-170.89107, 65.54139], [-172.53025, 65.43791], [-172.555, 64.46079], [-172.95533, 64.25269], [-175.98353, 64.92288], [-176.20716, 65.35667], [-178.35993, 65.39052], [-178.90332, 65.74044], [-178.68611, 66.11211], [-179.88377, 65.87456], [-179.43268, 65.40411], [-180.0, 64.979709], [-180.0, 68.963636], [-174.92825, 67.20589], [-175.01425, 66.58435], [-174.33983, 66.33556], [-174.57182, 67.06219], [-171.85731, 66.91308], [-169.89958, 65.97724], [-170.89107, 65.54139]]], [[[-177.663575, 71.13277], [-180.0, 70.832199], [-180.0, 71.515714], [-179.02433, 71.55553], [-177.663575, 71.13277]]], [[[15.099988, 36.619987], [12.431004, 37.61295], [12.570944, 38.126381], [15.520376, 38.231155], [15.099988, 36.619987]]], [[[23.28134, 78.07954], [24.72412, 77.85385], [22.49032, 77.44493], [20.72601, 77.67704], [21.41611, 77.93504], [20.8119, 78.25463], [22.88426, 78.45494], [23.28134, 78.07954]]], [[[18.47172, 77.82669], [17.59441, 77.63796], [17.1182, 76.80941], [15.91315, 76.77045], [13.76259, 77.38035], [14.66956, 77.73565], [11.22231, 78.8693], [10.44453, 79.65239], [13.17077, 80.01046], [13.71852, 79.66039], [15.14282, 79.67431], [15.52255, 80.01608], [16.99085, 80.05086], [21.54383, 78.95611], [19.02737, 78.5626], [18.47172, 77.82669]]], [[[17.368015, 80.318896], [20.455992, 80.598156], [21.907945, 80.357679], [22.919253, 80.657144], [27.407506, 80.056406], [25.924651, 79.517834], [23.024466, 79.400012], [20.075188, 79.566823], [19.897266, 79.842362], [18.462264, 79.85988], [17.368015, 80.318896]]], [[[23.69998, 35.705004], [25.745023, 35.179998], [26.290003, 35.29999], [26.164998, 35.004995], [24.724982, 34.919988], [23.514978, 35.279992], [23.69998, 35.705004]]], [[[142.558668, 47.861575], [143.533492, 46.836728], [143.505277, 46.137908], [142.747701, 46.740765], [142.09203, 45.966755], [141.906925, 46.805929], [142.179983, 50.952342], [141.594076, 51.935435], [141.682546, 53.301966], [142.606934, 53.762145], [142.209749, 54.225476], [142.654786, 54.365881], [143.260848, 52.74076], [143.235268, 51.75666], [144.654148, 48.976391], [143.173928, 49.306551], [142.558668, 47.861575]]], [[[180.0, 70.832199], [178.903425, 70.78114], [178.7253, 71.0988], [180.0, 71.515714], [180.0, 70.832199]]], [[[140.038155, 73.31692], [140.81171, 73.76506], [142.06207, 73.85758], [143.60385, 73.21244], [140.038155, 73.31692]]], [[[61.170044, 76.251883], [68.15706, 76.939697], [68.852211, 76.544811], [61.583508, 75.260885], [58.477082, 74.309056], [55.419336, 72.371268], [55.622838, 71.540595], [57.535693, 70.720464], [53.677375, 70.762658], [53.412017, 71.206662], [51.601895, 71.474759], [51.455754, 72.014881], [52.478275, 72.229442], [52.444169, 72.774731], [54.427614, 73.627548], [53.50829, 73.749814], [55.902459, 74.627486], [55.631933, 75.081412], [61.170044, 76.251883]]], [[[146.358485, 75.49682], [150.73167, 75.08406], [149.575925, 74.68892], [146.11919, 75.17298], [146.358485, 75.49682]]], [[[136.97439, 75.26167], [137.51176, 75.94917], [138.831075, 76.13676], [145.086285, 75.562625], [144.3, 74.82], [138.95544, 74.61148], [136.97439, 75.26167]]], [[[102.837815, 79.28129], [105.37243, 78.71334], [105.07547, 78.30689], [99.43814, 77.921], [101.2649, 79.23399], [102.837815, 79.28129]]], [[[94.97259, 79.044745], [93.31288, 79.4265], [92.5454, 80.14379], [91.18107, 80.34146], [95.940895, 81.2504], [100.186655, 79.780135], [99.93976, 78.88094], [94.97259, 79.044745]]], [[[51.522933, 80.699726], [47.586119, 80.010181], [46.502826, 80.247247], [47.072455, 80.559424], [44.846958, 80.58981], [48.318477, 80.78401], [48.522806, 80.514569], [50.039768, 80.918885], [51.522933, 80.699726]]]]}}, {"type": "Feature", "id": "africa", "properties": {"preset_id": "africa", "name": "Africa"}, "geometry": {"type": "MultiPolygon", "coordinates": [[[[-9.004794, 4.832419], [-12.949049, 7.798646], [-13.24655, 8.903049], [-14.579699, 10.214467], [-14.839554, 10.876572], [-16.085214, 11.524594], [-16.613838, 12.170911], [-16.713729, 13.594959], [-17.625043, 14.729541], [-16.700706, 15.621527], [-16.270552, 17.166963], [-16.277838, 20.092521], [-17.063423, 20.999752], [-16.973248, 21.885745], [-16.261922, 22.67934], [-15.982611, 23.723358], [-15.089332, 24.520261], [-14.43994, 26.254418], [-13.773805, 26.618892], [-13.139942, 27.640148], [-12.618837, 28.038186], [-11.688919, 28.148644], [-9.564811, 29.933574], [-9.814718, 31.177736], [-9.300693, 32.564679], [-8.657476, 33.240245], [-6.912544, 34.110476], [-5.929994, 35.759988], [-5.193863, 35.755182], [-4.591006, 35.330712], [-2.169914, 35.168396], [1.466919, 36.605647], [5.32012, 36.716519], [6.26182, 37.110655], [7.737078, 36.885708], [9.509994, 37.349994], [10.210002, 37.230002], [10.18065, 36.724038], [11.028867, 37.092103], [10.600005, 36.41], [10.593287, 35.947444], [10.939519, 35.698984], [10.807847, 34.833507], [10.149593, 34.330773], [10.339659, 33.785742], [10.856836, 33.76874], [11.488787, 33.136996], [15.24563, 32.26508], [15.71394, 31.37626], [19.08641, 30.26639], [20.05335, 30.98576], [19.82033, 31.75179], [20.13397, 32.2382], [21.54298, 32.8432], [22.89576, 32.63858], [23.2368, 32.19149], [24.92114, 31.89936], [25.16482, 31.56915], [26.49533, 31.58568], [28.91353, 30.87005], [30.97693, 31.55586], [31.68796, 31.4296], [31.96041, 30.9336], [32.19247, 31.26034], [33.7734, 30.96746], [34.26544, 31.21936], [34.9226, 29.50133], [34.15451, 27.8233], [33.92136, 27.6487], [33.13676, 28.41765], [32.42323, 29.85108], [32.73482, 28.70523], [35.69241, 23.92671], [35.52598, 23.10244], [36.86623, 22.0], [37.48179, 18.61409], [38.41009, 17.998307], [39.26611, 15.922723], [43.317852, 12.390148], [43.286381, 11.974928], [42.715874, 11.735641], [44.117804, 10.445538], [44.614259, 10.442205], [50.25878, 11.67957], [50.73202, 12.0219], [51.1112, 12.02464], [51.13387, 11.74815], [50.55239, 9.19874], [48.59455, 5.33911], [46.56476, 2.85529], [43.13597, 0.2922], [41.58513, -1.68325], [40.26304, -2.57309], [39.60489, -4.34653], [39.20222, -4.67677], [38.79977, -6.47566], [39.44, -6.84], [39.18652, -8.48551], [40.478387, -10.765441], [40.775475, -14.691764], [39.452559, -16.720891], [37.411133, -17.586368], [34.786383, -19.784012], [34.701893, -20.497043], [35.562546, -22.09], [35.458746, -24.12261], [32.574632, -25.727318], [32.915955, -26.215867], [32.203389, -28.752405], [28.219756, -32.771953], [25.780628, -33.944646], [22.574157, -33.864083], [20.071261, -34.795137], [18.377411, -34.136521], [17.92519, -32.611291], [18.24791, -32.429131], [18.221762, -31.661633], [15.210472, -27.090956], [14.257714, -22.111208], [11.794919, -18.069129], [11.778537, -15.793816], [12.500095, -13.5477], [13.633721, -12.038645], [13.686379, -10.731076], [12.87537, -9.166934], [13.236433, -8.562629], [11.914963, -5.037987], [8.797996, -1.111301], [9.795196, 3.073404], [9.404367, 3.734527], [8.948116, 3.904129], [8.500288, 4.771983], [5.898173, 4.262453], [4.325607, 6.270651], [1.865241, 6.142158], [-1.964707, 4.710462], [-4.649917, 5.168264], [-7.974107, 4.355755], [-9.004794, 4.832419]]], [[[50.200275, -16.000263], [49.860606, -15.414253], [49.774564, -16.875042], [47.095761, -24.94163], [45.409508, -25.601434], [44.03972, -24.988345], [43.254187, -22.057413], [44.374325, -20.072366], [43.963084, -17.409945], [44.446517, -16.216219], [46.312243, -15.780018], [47.70513, -14.594303], [48.005215, -14.091233], [47.869047, -13.663869], [48.293828, -13.784068], [49.194651, -12.040557], [50.056511, -13.555761], [50.476537, -15.226512], [50.200275, -16.000263]]]]}}, {"type": "Feature", "id": "asia", "properties": {"preset_id": "asia", "name": "Asia"}, "geometry": {"type": "MultiPolygon", "coordinates": [[[[48.679231, 14.003202], [45.62505, 13.290946], [44.989533, 12.699587], [43.482959, 12.6368], [42.604873, 15.213335], [42.779332, 16.347891], [42.270888, 17.474722], [41.754382, 17.833046], [40.939341, 19.486485], [39.801685, 20.338862], [39.139399, 21.291905], [39.066329, 22.579656], [38.492772, 23.688451], [37.483635, 24.285495], [36.931627, 25.602959], [35.130187, 28.063352], [34.632336, 28.058546], [34.956037, 29.356555], [34.265433, 31.219361], [35.998403, 34.644914], [36.149763, 35.821535], [35.782085, 36.274995], [36.160822, 36.650606], [34.714553, 36.795532], [34.026895, 36.21996], [32.509158, 36.107564], [31.699595, 36.644275], [30.621625, 36.677865], [30.391096, 36.262981], [29.699976, 36.144357], [28.732903, 36.676831], [27.641187, 36.658822], [26.318218, 38.208133], [26.8047, 38.98576], [26.170785, 39.463612], [27.28002, 40.420014], [28.819978, 40.460011], [29.240004, 41.219991], [31.145934, 41.087622], [33.513283, 42.01896], [35.167704, 42.040225], [38.347665, 40.948586], [40.373433, 41.013673], [41.554084, 41.535656], [41.703171, 41.962943], [41.45347, 42.645123], [40.321394, 43.128634], [40.076965, 43.553104], [42.3944, 43.2203], [43.93121, 42.55496], [45.470279, 42.502781], [47.373315, 41.219732], [47.815666, 41.151416], [48.584353, 41.808869], [49.618915, 40.572924], [50.392821, 40.256561], [49.569202, 40.176101], [49.223228, 39.049219], [48.856532, 38.815486], [49.199612, 37.582874], [50.842354, 36.872814], [52.264025, 36.700422], [53.82579, 36.965031], [53.880929, 38.952093], [53.101028, 39.290574], [53.357808, 39.975286], [52.693973, 40.033629], [52.915251, 40.876523], [53.858139, 40.631034], [54.736845, 40.951015], [53.721713, 42.123191], [52.91675, 41.868117], [52.814689, 41.135371], [52.501426, 42.792298], [51.342427, 43.132975], [50.305643, 44.609836], [51.278503, 44.514854], [51.316899, 45.245998], [53.040876, 45.259047], [53.042737, 46.853006], [51.191945, 47.048705], [49.10116, 46.39933], [48.59325, 46.56104], [48.694734, 47.075628], [48.05725, 47.74377], [47.31524, 47.71585], [46.466446, 48.394152], [47.54948, 50.454698], [48.577841, 49.87476], [48.702382, 50.605128], [50.766648, 51.692762], [52.328724, 51.718652], [55.71694, 50.62171], [56.77798, 51.04355], [58.36332, 51.06364], [59.642282, 50.545442], [59.932807, 50.842194], [61.337424, 50.79907], [61.588003, 51.272659], [59.967534, 51.96042], [60.927269, 52.447548], [60.739993, 52.719986], [61.699986, 52.979996], [60.978066, 53.664993], [61.4366, 54.00625], [65.178534, 54.354228], [69.068167, 55.38525], [70.865267, 55.169734], [71.180131, 54.133285], [72.22415, 54.376655], [73.508516, 54.035617], [73.425679, 53.48981], [74.38482, 53.54685], [76.8911, 54.490524], [76.525179, 54.177003], [77.800916, 53.404415], [80.03556, 50.864751], [80.568447, 51.388336], [81.945986, 50.812196], [83.383004, 51.069183], [85.54127, 49.692859], [86.829357, 49.826675], [87.35997, 49.214981], [88.805567, 49.470521], [92.234712, 50.802171], [94.147566, 50.480537], [94.815949, 50.013433], [97.25976, 49.72605], [98.231762, 50.422401], [97.82574, 51.010995], [98.861491, 52.047366], [102.06521, 51.25991], [102.25589, 50.51056], [103.676545, 50.089966], [106.888804, 50.274296], [108.475167, 49.282548], [110.662011, 49.130128], [112.89774, 49.543565], [114.362456, 50.248303], [115.485695, 49.805177], [116.678801, 49.888531], [117.879244, 49.510983], [119.288461, 50.142883], [119.27939, 50.58292], [120.7382, 51.96411], [120.725789, 52.516226], [120.177089, 52.753886], [121.003085, 53.251401], [123.57147, 53.4588], [125.946349, 52.792799], [127.6574, 49.76027], [129.397818, 49.4406], [130.582293, 48.729687], [130.98726, 47.79013], [132.50669, 47.78896], [135.026311, 48.47823], [133.09712, 45.14409], [131.883454, 45.321162], [131.02519, 44.96796], [131.288555, 44.11152], [131.144688, 42.92999], [130.633866, 42.903015], [130.779992, 42.22001], [130.400031, 42.280004], [129.667362, 41.601104], [129.705189, 40.882828], [127.533436, 39.75685], [127.385434, 39.213472], [128.349716, 38.612243], [129.46045, 36.784189], [129.468304, 35.632141], [129.091377, 35.082484], [126.485748, 34.390046], [126.559231, 35.684541], [126.117398, 36.725485], [126.860143, 36.893924], [126.174759, 37.749686], [125.689104, 37.94001], [125.27533, 37.669071], [124.712161, 38.108346], [125.221949, 38.665857], [125.321116, 39.551385], [124.265625, 39.928493], [121.054554, 38.897471], [121.585995, 39.360854], [121.376757, 39.750261], [122.168595, 40.422443], [121.640359, 40.94639], [119.639602, 39.898056], [119.023464, 39.252333], [118.042749, 39.204274], [117.532702, 38.737636], [118.059699, 38.061476], [118.87815, 37.897325], [118.911636, 37.448464], [119.702802, 37.156389], [120.823457, 37.870428], [122.357937, 37.454484], [122.519995, 36.930614], [121.104164, 36.651329], [119.151208, 34.909859], [120.227525, 34.360332], [121.908146, 31.692174], [121.891919, 30.949352], [121.264257, 30.676267], [121.503519, 30.142915], [122.092114, 29.83252], [121.938428, 29.018022], [121.684439, 28.225513], [121.125661, 28.135673], [118.656871, 24.547391], [115.890735, 22.782873], [114.763827, 22.668074], [114.152547, 22.22376], [113.80678, 22.54834], [113.241078, 22.051367], [110.785466, 21.397144], [110.444039, 20.341033], [109.889861, 20.282457], [109.627655, 21.008227], [109.864488, 21.395051], [108.522813, 21.715212], [106.715068, 20.696851], [105.881682, 19.75205], [105.662006, 19.058165], [107.361954, 16.697457], [108.877107, 15.276691], [109.33527, 13.426028], [109.200136, 11.666859], [105.158264, 8.59976], [104.795185, 9.241038], [105.076202, 9.918491], [104.334335, 10.486544], [103.49728, 10.632555], [102.584932, 12.186595], [101.687158, 12.64574], [100.83181, 12.627085], [100.978467, 13.412722], [100.097797, 13.406856], [100.018733, 12.307001], [99.153772, 9.963061], [99.222399, 9.239255], [99.873832, 9.207862], [100.459274, 7.429573], [102.961705, 5.524495], [103.381215, 4.855001], [103.502448, 2.791019], [104.228811, 1.293048], [103.519707, 1.226334], [101.390638, 2.760814], [100.196706, 5.312493], [100.085757, 6.464489], [98.503786, 8.382305], [98.339662, 7.794512], [98.150009, 8.350007], [98.764546, 11.441292], [98.428339, 12.032987], [98.509574, 13.122378], [98.103604, 13.64046], [97.16454, 16.928734], [95.369352, 15.71439], [94.188804, 16.037936], [94.533486, 17.27724], [94.324817, 18.213514], [93.540988, 19.366493], [93.663255, 19.726962], [93.078278, 19.855145], [92.368554, 20.670883], [91.417087, 22.765019], [90.496006, 22.805017], [90.272971, 21.836368], [89.031961, 22.055708], [88.888766, 21.690588], [86.975704, 21.495562], [87.033169, 20.743308], [86.499351, 20.151638], [85.060266, 19.478579], [82.192792, 17.016636], [82.191242, 16.556664], [80.324896, 15.899185], [80.025069, 15.136415], [80.286294, 13.006261], [79.862547, 12.056215], [79.857999, 10.357275], [79.340512, 10.308854], [78.885345, 9.546136], [79.18972, 9.216544], [78.277941, 8.933047], [77.539898, 7.965535], [76.592979, 8.899276], [75.746467, 11.308251], [74.864816, 12.741936], [74.443859, 14.617222], [73.534199, 15.990652], [72.630533, 21.356009], [71.175273, 20.757441], [70.470459, 20.877331], [69.16413, 22.089298], [69.644928, 22.450775], [69.349597, 22.84318], [67.443667, 23.944844], [66.372828, 25.425141], [61.497363, 25.078237], [57.397251, 25.739902], [56.970766, 26.966106], [56.492139, 27.143305], [54.71509, 26.480658], [53.493097, 26.812369], [52.483598, 27.580849], [51.520763, 27.86569], [50.115009, 30.147773], [49.57685, 29.985715], [48.941333, 30.31709], [48.567971, 29.926778], [47.974519, 29.975819], [48.416094, 28.552004], [48.807595, 27.689628], [50.152422, 26.689663], [50.113303, 25.943972], [50.810108, 24.754743], [51.013352, 26.006992], [51.589079, 25.801113], [51.389608, 24.627386], [51.794389, 24.019826], [54.008001, 24.121758], [56.362017, 26.395934], [56.396847, 24.924732], [56.84514, 24.241673], [58.729211, 23.565668], [59.806148, 22.310525], [58.487986, 20.428986], [57.826373, 20.243002], [57.694391, 18.94471], [56.609651, 18.574267], [56.283521, 17.876067], [55.661492, 17.884128], [54.791002, 16.950697], [54.239253, 17.044981], [52.385206, 16.382411], [52.168165, 15.59742], [49.574576, 14.708767], [48.679231, 14.003202]]], [[[32.256667, 35.103232], [32.946961, 35.386703], [34.576474, 35.671596], [33.900804, 35.245756], [34.004881, 34.978098], [32.979827, 34.571869], [32.256667, 35.103232]]], [[[27.619017, 40.999823], [26.358009, 40.151994], [26.056942, 40.824123], [26.604196, 41.562115], [26.117042, 41.826905], [27.135739, 42.141485], [27.99672, 42.007359], [28.115525, 41.622886], [28.988443, 41.299934], [28.806438, 41.054962], [27.619017, 40.999823]]], [[[117.632024, -8.449303], [117.900018, -8.095681], [118.87846, -8.280683], [119.126507, -8.705825], [116.740141, -9.032937], [117.083737, -8.457158], [117.632024, -8.449303]]], [[[115.705527, -8.370807], [114.564511, -8.751817], [113.464734, -8.348947], [108.277763, -7.766657], [106.454102, -7.3549], [106.280624, -6.9249], [105.365486, -6.851416], [106.051646, -5.895919], [107.265009, -5.954985], [108.486846, -6.421985], [108.623479, -6.777674], [110.539227, -6.877358], [110.759576, -6.465186], [112.614811, -6.946036], [112.978768, -7.594213], [114.478935, -7.776528], [115.705527, -8.370807]]], [[[105.817655, -5.852356], [104.710384, -5.873285], [102.584261, -4.220259], [99.26374, 0.183142], [98.601351, 1.823507], [95.380876, 4.970782], [95.293026, 5.479821], [97.484882, 5.246321], [100.641434, 2.099381], [101.658012, 2.083697], [103.838396, 0.104542], [103.437645, -0.711946], [104.369991, -1.084843], [104.887893, -2.340425], [105.622111, -2.428844], [106.108593, -3.061777], [105.817655, -5.852356]]], [[[117.478339, 0.102475], [117.521644, -0.803723], [116.560048, -1.487661], [116.148084, -4.012726], [116.000858, -3.657037], [114.864803, -4.106984], [114.468652, -3.495704], [113.256994, -3.118776], [112.068126, -3.478392], [111.703291, -2.994442], [110.223846, -2.934032], [110.070936, -1.592874], [109.091874, -0.459507], [108.952658, 0.415375], [109.069136, 1.341934], [109.66326, 2.006467], [110.396135, 1.663775], [111.168853, 1.850637], [111.370081, 2.697303], [112.995615, 3.102395], [116.725103, 6.924771], [117.129626, 6.928053], [117.689075, 5.98749], [119.181904, 5.407836], [119.110694, 5.016128], [118.439727, 4.966519], [118.618321, 4.478202], [117.882035, 4.137551], [117.313232, 3.234428], [118.04833, 2.28769], [117.875627, 1.827641], [118.996747, 0.902219], [117.811858, 0.784242], [117.478339, 0.102475]]], [[[80.147801, 9.824078], [80.838818, 9.268427], [81.787959, 7.523055], [81.637322, 6.481775], [80.348357, 5.96837], [79.872469, 6.763463], [79.695167, 8.200843], [80.147801, 9.824078]]], [[[119.689677, 10.554291], [118.504581, 9.316383], [117.174275, 8.3675], [119.511496, 11.369668], [119.689677, 10.554291]]], [[[111.010051, 19.69593], [110.339188, 18.678395], [109.47521, 18.197701], [108.655208, 18.507682], [108.626217, 19.367888], [109.119056, 19.821039], [110.786551, 20.077534], [111.010051, 19.69593]]], [[[120.715609, -10.239581], [118.967808, -9.557969], [119.90031, -9.36134], [120.775502, -9.969675], [120.715609, -10.239581]]], [[[123.980009, -9.290027], [125.947072, -8.432095], [127.335928, -8.397317], [125.08852, -9.393173], [124.43595, -10.140001], [123.459989, -10.239995], [123.980009, -9.290027]]], [[[120.715092, -8.236965], [121.341669, -8.53674], [122.903537, -8.094234], [122.756983, -8.649808], [119.924391, -8.810418], [119.920929, -8.444859], [120.715092, -8.236965]]], [[[134.210134, -6.895238], [134.112776, -6.142467], [134.499625, -5.445042], [134.724624, -6.214401], [134.210134, -6.895238]]], [[[137.614474, -8.411683], [138.039099, -7.597882], [138.668621, -7.320225], [137.92784, -5.393366], [135.164598, -4.462931], [133.66288, -3.538853], [132.983956, -4.112979], [132.753789, -3.311787], [131.989804, -2.820551], [133.780031, -2.479848], [133.696212, -2.214542], [132.232373, -2.212526], [131.836222, -1.617162], [130.94284, -1.432522], [130.519558, -0.93772], [132.380116, -0.369538], [133.985548, -0.78021], [134.422627, -2.769185], [135.457603, -3.367753], [136.293314, -2.307042], [137.440738, -1.703513], [138.329727, -1.702686], [141.00021, -2.600151], [141.033852, -9.117893], [140.143415, -8.297168], [139.127767, -8.096043], [138.881477, -8.380935], [137.614474, -8.411683]]], [[[126.183802, -3.607376], [125.989034, -3.177273], [127.000651, -3.129318], [127.249215, -3.459065], [126.874923, -3.790983], [126.183802, -3.607376]]], [[[127.898891, -3.393436], [128.135879, -2.84365], [129.370998, -2.802154], [130.471344, -3.093764], [130.834836, -3.858472], [129.990547, -3.446301], [127.898891, -3.393436]]], [[[124.437035, 0.427881], [120.183083, 0.237247], [120.04087, -0.519658], [120.935905, -1.408906], [121.475821, -0.955962], [123.340565, -0.615673], [123.258399, -1.076213], [122.822715, -0.930951], [122.38853, -1.516858], [121.508274, -1.904483], [122.454572, -3.186058], [122.271896, -3.5295], [123.170963, -4.683693], [123.162333, -5.340604], [122.628515, -5.634591], [122.236394, -5.282933], [122.719569, -4.464172], [121.738234, -4.851331], [121.489463, -4.574553], [121.619171, -4.188478], [120.898182, -3.602105], [120.972389, -2.627643], [120.305453, -2.931604], [120.430717, -5.528241], [119.796543, -5.6734], [119.366906, -5.379878], [119.653606, -4.459417], [119.498835, -3.494412], [119.078344, -3.487022], [118.767769, -2.801999], [120.035702, 0.566477], [120.885779, 1.309223], [122.927567, 0.875192], [124.077522, 0.917102], [125.065989, 1.643259], [125.240501, 1.419836], [124.437035, 0.427881]]], [[[127.968034, -0.252077], [128.379999, -0.780004], [128.100016, -0.899996], [127.696475, -0.266598], [127.39949, 1.011722], [127.932378, 2.174596], [128.004156, 1.628531], [128.594559, 1.540811], [128.688249, 1.132386], [128.635952, 0.258486], [128.12017, 0.356413], [127.968034, -0.252077]]], [[[125.683161, 6.049657], [125.396512, 5.581003], [124.219788, 6.161355], [123.93872, 6.885136], [124.243662, 7.36061], [123.610212, 7.833527], [122.085499, 6.899424], [121.919928, 7.192119], [122.312359, 8.034962], [123.487688, 8.69301], [123.841154, 8.240324], [124.60147, 8.514158], [124.764612, 8.960409], [125.471391, 8.986997], [125.412118, 9.760335], [126.222714, 9.286074], [126.537424, 7.189381], [126.196773, 6.274294], [125.831421, 7.293715], [125.363852, 6.786485], [125.683161, 6.049657]]], [[[123.982438, 10.278779], [122.995883, 9.022189], [122.380055, 9.713361], [122.947411, 10.881868], [123.49885, 10.940624], [123.337774, 10.267384], [124.077936, 11.232726], [123.982438, 10.278779]]], [[[122.00261, 10.441017], [121.883548, 11.891755], [123.120217, 11.58366], [122.637714, 10.741308], [122.00261, 10.441017]]], [[[124.760168, 10.837995], [124.459101, 10.88993], [124.302522, 11.495371], [124.891013, 11.415583], [124.87799, 11.79419], [124.266762, 12.557761], [125.227116, 12.535721], [125.502552, 12.162695], [125.783465, 11.046122], [125.011884, 11.311455], [125.277449, 10.358722], [124.801819, 10.134679], [124.760168, 10.837995]]], [[[120.323436, 13.466413], [121.180128, 13.429697], [121.527394, 13.06959], [121.26219, 12.20556], [120.323436, 13.466413]]], [[[121.728829, 14.328376], [122.701276, 14.336541], [123.950295, 13.782131], [124.077419, 12.536677], [122.928652, 13.55292], [122.671355, 13.185836], [122.03465, 13.784482], [120.628637, 13.857656], [120.991819, 14.525393], [120.693336, 14.756671], [120.564145, 14.396279], [120.070429, 14.970869], [119.883773, 16.363704], [120.286488, 16.034629], [120.715867, 18.505227], [121.937601, 18.218552], [122.246006, 18.47895], [122.336957, 18.224883], [122.174279, 17.810283], [122.515654, 17.093505], [122.252311, 16.262444], [121.662786, 15.931018], [121.728829, 14.328376]]], [[[121.951244, 24.997596], [121.175632, 22.790857], [120.74708, 21.970571], [120.106189, 23.556263], [121.495044, 25.295459], [121.951244, 24.997596]]], [[[133.79295, 33.521985], [133.280268, 33.28957], [133.014858, 32.704567], [132.363115, 32.989382], [132.371176, 33.463642], [132.924373, 34.060299], [133.492968, 33.944621], [133.904106, 34.364931], [134.638428, 34.149234], [134.766379, 33.806335], [134.203416, 33.201178], [133.79295, 33.521985]]], [[[138.975528, 34.6676], [137.217599, 34.606286], [135.792983, 33.464805], [135.120983, 33.849071], [135.079435, 34.596545], [130.986145, 33.885761], [132.000036, 33.149992], [131.33279, 31.450355], [130.686318, 31.029579], [130.20242, 31.418238], [130.447676, 32.319475], [129.814692, 32.61031], [129.408463, 33.296056], [130.353935, 33.604151], [132.617673, 35.433393], [134.608301, 35.731618], [135.677538, 35.527134], [136.723831, 37.304984], [137.390612, 36.827391], [139.426405, 38.215962], [140.05479, 39.438807], [139.883379, 40.563312], [140.305783, 41.195005], [141.368973, 41.37856], [141.914263, 39.991616], [141.884601, 39.180865], [140.959489, 38.174001], [140.976388, 37.142074], [140.59977, 36.343983], [140.774074, 35.842877], [140.253279, 35.138114], [138.975528, 34.6676]]], [[[130.780005, 42.22001], [130.780007, 42.220007], [130.780004, 42.220008], [130.780005, 42.22001]]], [[[139.955106, 41.569556], [139.817544, 42.563759], [140.312087, 43.333273], [141.380549, 43.388825], [141.967645, 45.551483], [143.910162, 44.1741], [144.613427, 43.960883], [145.320825, 44.384733], [145.543137, 43.262088], [144.059662, 42.988358], [143.18385, 41.995215], [141.611491, 42.678791], [141.067286, 41.584594], [139.955106, 41.569556]]]]}}, {"type": "Feature", "id": "oceania", "properties": {"preset_id": "oceania", "name": "Oceania"}, "geometry": {"type": "MultiPolygon", "coordinates": [[[[147.914052, -43.211522], [147.564564, -42.937689], [146.870343, -43.634597], [146.048378, -43.549745], [144.718071, -41.162552], [144.743755, -40.703975], [146.364121, -41.137695], [148.289068, -40.875438], [148.359865, -42.062445], [147.914052, -43.211522]]], [[[123.659667, -33.890179], [119.893695, -33.976065], [118.024972, -35.064733], [116.625109, -35.025097], [115.026809, -34.196517], [115.048616, -33.623425], [115.714674, -33.259572], [115.801645, -32.205062], [115.040038, -29.461095], [113.338953, -26.116545], [113.778358, -26.549025], [113.440962, -25.621278], [114.232852, -26.298446], [113.393523, -24.384764], [113.843418, -23.059987], [113.736552, -22.475475], [114.149756, -21.755881], [114.225307, -22.517488], [114.647762, -21.82952], [116.711615, -20.701682], [117.441545, -20.746899], [119.252494, -19.952942], [120.85622, -19.683708], [122.241665, -18.197649], [122.312772, -17.254967], [123.012574, -16.4052], [123.433789, -17.268558], [123.859345, -17.069035], [123.503242, -16.596506], [123.817073, -16.111316], [124.258287, -16.327944], [124.379726, -15.56706], [125.685796, -14.230656], [126.125149, -14.347341], [126.142823, -14.095987], [127.065867, -13.817968], [128.35969, -14.86917], [129.621473, -14.969784], [129.4096, -14.42067], [130.339466, -13.357376], [130.183506, -13.10752], [130.617795, -12.536392], [131.223495, -12.183649], [132.575298, -12.114041], [132.557212, -11.603012], [131.824698, -11.273782], [132.357224, -11.128519], [135.298491, -12.248606], [136.492475, -11.857209], [136.95162, -12.351959], [136.305407, -13.29123], [135.961758, -13.324509], [136.077617, -13.724278], [135.500184, -14.997741], [140.215245, -17.710805], [140.875463, -17.369069], [141.274095, -16.38887], [141.702183, -15.044921], [141.68699, -12.407614], [142.51526, -10.668186], [143.522124, -12.834358], [143.922099, -14.548311], [144.563714, -14.171176], [145.374724, -14.984976], [145.48526, -16.285672], [146.387478, -18.958274], [148.848414, -20.39121], [148.717465, -20.633469], [149.678337, -22.342512], [150.077382, -22.122784], [150.482939, -22.556142], [150.727265, -22.402405], [150.899554, -23.462237], [152.855197, -25.267501], [153.136162, -26.071173], [153.092909, -27.2603], [153.569469, -28.110067], [152.891578, -31.640446], [152.450002, -32.550003], [151.709117, -33.041342], [150.32822, -35.671879], [149.997284, -37.425261], [149.423882, -37.772681], [148.304622, -37.809061], [146.317922, -39.035757], [144.876976, -38.417448], [145.032212, -37.896188], [143.609974, -38.809465], [140.638579, -38.019333], [139.992158, -37.402936], [139.574148, -36.138362], [139.082808, -35.732754], [138.120748, -35.612296], [138.449462, -35.127261], [138.207564, -34.384723], [137.71917, -35.076825], [136.829406, -35.260535], [137.890116, -33.640479], [137.810328, -32.900007], [136.372069, -34.094766], [135.989043, -34.890118], [135.208213, -34.47867], [135.239218, -33.947953], [134.085904, -32.848072], [134.273903, -32.617234], [131.326331, -31.495803], [129.535794, -31.590423], [127.102867, -32.282267], [126.148714, -32.215966], [124.221648, -32.959487], [123.659667, -33.890179]]], [[[-179.79332, -16.020882], [-179.917369, -16.501783], [-180.0, -16.555217], [-180.0, -16.067133], [-179.79332, -16.020882]]], [[[159.702945, -9.24295], [160.362956, -9.400304], [160.852229, -9.872937], [159.849447, -9.794027], [159.702945, -9.24295]]], [[[159.917402, -8.53829], [158.21115, -7.421872], [159.640003, -8.020027], [159.917402, -8.53829]]], [[[156.90203, -7.176874], [156.542828, -6.599338], [157.538426, -7.34782], [156.90203, -7.176874]]], [[[145.829786, -4.876498], [145.981922, -5.465609], [147.648073, -6.083659], [147.891108, -6.614015], [146.970905, -6.721657], [147.191874, -7.388024], [148.084636, -8.044108], [148.734105, -9.104664], [149.306835, -9.071436], [149.266631, -9.514406], [150.801628, -10.293687], [150.690575, -10.582713], [147.913018, -10.130441], [146.567881, -8.942555], [146.048481, -8.067414], [144.744168, -7.630128], [143.286376, -8.245491], [143.413913, -8.983069], [142.628431, -9.326821], [141.033852, -9.117893], [141.00021, -2.600151], [144.583971, -3.861418], [145.829786, -4.876498]]], [[[155.599991, -6.919991], [154.729192, -5.900828], [154.652504, -5.042431], [156.019965, -6.540014], [155.599991, -6.919991]]], [[[148.318937, -5.747142], [148.401826, -5.437756], [149.845562, -5.505503], [150.139756, -5.001348], [150.236908, -5.53222], [150.807467, -5.455842], [151.647881, -4.757074], [151.537862, -4.167807], [152.338743, -4.312966], [151.982796, -5.478063], [150.241197, -6.317754], [148.318937, -5.747142]]], [[[152.638673, -4.176127], [151.384279, -3.035422], [150.66205, -2.741486], [150.939965, -2.500002], [152.239989, -3.240009], [153.019994, -3.980015], [153.140038, -4.499983], [152.827292, -4.766427], [152.638673, -4.176127]]], [[[171.948709, -41.514417], [172.097227, -40.956104], [172.79858, -40.493962], [173.247234, -41.331999], [173.958405, -40.926701], [174.247587, -41.349155], [174.248517, -41.770008], [172.711246, -43.372288], [173.080113, -43.853344], [171.452925, -44.242519], [170.616697, -45.908929], [169.332331, -46.641235], [166.676886, -46.219917], [166.509144, -45.852705], [167.046424, -45.110941], [168.303763, -44.123973], [170.52492, -43.031688], [171.948709, -41.514417]]], [[[175.239567, -41.688308], [174.650973, -41.281821], [175.22763, -40.459236], [174.900157, -39.908933], [173.824047, -39.508854], [173.852262, -39.146602], [174.574802, -38.797683], [174.697017, -37.381129], [172.636005, -34.529107], [173.007042, -34.450662], [174.32939, -35.265496], [175.336616, -37.209098], [175.357596, -36.526194], [175.808887, -36.798942], [175.95849, -37.555382], [177.438813, -37.961248], [178.010354, -37.579825], [178.517094, -37.695373], [177.97046, -39.166343], [177.206993, -39.145776], [177.032946, -39.879943], [176.01244, -41.289624], [175.239567, -41.688308]]], [[[166.740035, -22.399976], [164.167995, -20.444747], [164.029606, -20.105646], [165.020036, -20.459991], [167.120011, -22.159991], [166.740035, -22.399976]]], [[[177.38146, -18.16432], [177.28504, -17.72465], [177.67087, -17.38114], [178.3736, -17.33992], [178.71806, -17.62846], [178.55271, -18.15059], [177.38146, -18.16432]]], [[[178.596839, -16.63915], [179.413509, -16.379054], [180.0, -16.067133], [180.0, -16.555217], [178.725059, -17.012042], [178.596839, -16.63915]]], [[[167.216801, -15.891846], [167.844877, -16.466333], [167.515181, -16.59785], [167.216801, -15.891846]]], [[[167.270028, -15.740021], [166.793158, -15.668811], [166.629137, -14.626497], [167.107712, -14.93392], [167.270028, -15.740021]]], [[[161.319797, -10.204751], [162.398646, -10.826367], [161.700032, -10.820011], [161.319797, -10.204751]]], [[[160.920028, -8.320009], [161.679982, -9.599982], [161.529397, -9.784312], [160.579997, -8.320009], [160.920028, -8.320009]]]]}}, {"type": "Feature", "id": "antarctica", "properties": {"preset_id": "antarctica", "name": "Antarctica"}, "geometry": {"type": "MultiPolygon", "coordinates": [[[[-61.883246, -80.39287], [-60.610119, -79.628679], [-59.572095, -80.040179], [-60.159656, -81.000327], [-64.488125, -80.921934], [-66.290031, -80.255773], [-61.883246, -80.39287]]], [[[-46.662857, -77.831476], [-43.920828, -78.478103], [-43.333267, -80.026123], [-50.482107, -81.025442], [-54.164259, -80.633528], [-53.987991, -80.222028], [-50.991326, -79.614623], [-48.660616, -78.047018], [-46.662857, -77.831476]]], [[[-160.246208, -78.693645], [-159.208184, -79.497059], [-161.127601, -79.634209], [-163.712896, -78.595667], [-163.105801, -78.223338], [-160.246208, -78.693645]]], [[[-180.0, -84.71338], [-179.058677, -84.139412], [-177.256772, -84.452933], [-175.829882, -84.117914], [-174.382503, -84.534323], [-172.889106, -84.061019], [-169.951223, -83.884647], [-167.022099, -84.570497], [-158.07138, -85.37391], [-155.192253, -85.09956], [-148.533073, -85.609038], [-143.107718, -85.040752], [-142.892279, -84.570497], [-150.060732, -84.296146], [-150.902928, -83.904232], [-153.586201, -83.68869], [-152.665637, -82.454192], [-152.861517, -82.042692], [-156.83745, -81.102129], [-152.097662, -81.004151], [-150.648293, -81.337309], [-146.417749, -80.337938], [-146.770286, -79.926439], [-149.531901, -79.358205], [-155.329376, -79.064269], [-158.051768, -78.025676], [-158.365134, -76.889207], [-156.974573, -77.300759], [-153.742832, -77.065579], [-152.920247, -77.496664], [-151.33378, -77.398737], [-146.104409, -76.47776], [-146.496091, -75.733154], [-146.20231, -75.380411], [-144.909624, -75.204039], [-144.322037, -75.537197], [-135.214583, -74.302699], [-119.70256, -74.479019], [-117.469801, -74.028348], [-116.216312, -74.243891], [-113.944331, -73.714828], [-112.299083, -74.714198], [-111.261059, -74.420263], [-107.559346, -75.184454], [-104.876074, -74.949326], [-100.645531, -75.302018], [-100.1167, -74.870933], [-101.252703, -74.185083], [-102.545337, -74.106742], [-103.113313, -73.734413], [-103.681289, -72.61753], [-99.13738, -72.911414], [-97.688037, -73.558041], [-96.336595, -73.616849], [-92.439003, -73.166179], [-90.088733, -73.322914], [-89.226951, -72.558722], [-88.423951, -73.009393], [-86.014822, -73.087786], [-85.192236, -73.4797], [-81.470913, -73.851977], [-80.295791, -73.126956], [-76.221879, -73.969541], [-68.935916, -73.009393], [-67.956622, -72.79385], [-67.134036, -72.049244], [-68.544209, -69.717397], [-67.5845, -68.541707], [-67.427843, -68.149844], [-67.741183, -67.326845], [-67.251548, -66.876175], [-63.001394, -64.642308], [-57.811143, -63.27066], [-57.223582, -63.525425], [-59.045073, -64.36801], [-60.611928, -64.309202], [-62.0221, -64.799094], [-62.648858, -65.484942], [-62.120079, -66.190326], [-63.74569, -66.503847], [-65.508425, -67.58161], [-65.665082, -67.953887], [-64.783715, -68.678908], [-63.1973, -69.227556], [-61.806661, -70.716768], [-60.690269, -73.166179], [-60.827367, -73.695242], [-61.96337, -74.439848], [-63.295201, -74.576997], [-64.352836, -75.262847], [-69.797724, -76.222995], [-70.600724, -76.634494], [-77.24037, -76.712887], [-76.926979, -77.104802], [-73.656119, -77.908112], [-77.925858, -78.378419], [-78.023785, -79.181833], [-75.360097, -80.259545], [-59.691416, -82.37585], [-58.222487, -83.218434], [-49.76135, -81.729171], [-42.808363, -82.081915], [-40.771433, -81.356894], [-28.549802, -80.337938], [-29.685805, -79.632503], [-29.685805, -79.260226], [-35.639912, -79.456132], [-35.914107, -79.083855], [-35.77701, -78.339248], [-28.882779, -76.673665], [-22.458598, -76.105431], [-17.522982, -75.125698], [-15.701491, -74.498604], [-15.40771, -74.106742], [-16.46532, -73.871614], [-15.446855, -73.146542], [-12.293508, -72.401936], [-10.295774, -71.265416], [-7.416622, -71.696501], [-6.868232, -70.93231], [-4.341667, -71.461373], [-0.659489, -71.226246], [-0.228637, -71.637745], [6.273912, -70.462055], [7.742866, -69.893769], [8.48711, -70.148534], [9.525135, -70.011333], [10.817821, -70.834332], [13.422778, -69.972162], [14.734998, -70.030918], [15.126757, -70.403247], [15.949342, -70.030918], [19.259373, -69.893769], [21.452985, -70.07014], [22.569403, -70.697182], [27.093726, -70.462055], [31.990172, -69.658641], [33.870419, -68.502588], [36.16201, -69.247142], [37.200035, -69.168748], [38.649404, -69.776205], [41.959434, -68.600514], [46.503343, -67.601196], [47.44344, -67.718759], [48.990736, -67.091718], [50.753471, -66.876175], [50.949325, -66.523484], [51.791547, -66.249133], [54.53355, -65.818049], [56.355041, -65.974783], [58.744508, -67.287675], [61.427806, -67.953887], [62.387489, -68.012695], [64.052349, -67.405239], [68.890038, -67.934302], [69.673453, -69.227556], [69.555941, -69.678226], [67.81274, -70.305268], [67.949889, -70.697182], [69.066307, -70.677545], [67.949889, -71.853287], [69.869307, -72.264787], [71.024895, -72.088415], [73.864877, -69.874183], [77.644904, -69.462684], [79.113859, -68.326216], [82.776426, -67.209282], [86.752359, -67.150474], [87.477017, -66.876175], [87.986289, -66.209911], [88.828408, -66.954568], [89.67063, -67.150474], [94.17542, -67.111303], [95.781472, -67.385653], [99.718182, -67.248504], [102.832411, -65.563284], [106.181561, -66.934931], [110.235835, -66.699804], [113.604673, -65.876805], [115.602381, -66.699804], [119.832924, -67.268089], [123.221296, -66.484261], [128.80328, -66.758611], [134.757387, -66.209963], [135.070753, -65.308571], [135.697485, -65.582869], [136.618049, -66.778197], [137.460271, -66.954568], [145.490427, -66.915346], [146.195552, -67.228867], [145.999699, -67.601196], [146.646067, -67.895131], [148.839629, -68.385024], [152.502247, -68.874813], [153.638199, -68.894502], [154.284567, -68.561292], [156.811132, -69.384291], [159.181013, -69.599833], [161.570479, -70.579618], [167.309095, -70.834332], [171.20679, -71.696501], [169.287321, -73.65602], [166.094803, -74.38104], [164.234193, -75.458804], [163.568239, -76.24258], [163.489897, -77.065579], [164.743464, -78.182514], [166.604126, -78.319611], [166.995781, -78.750748], [161.766385, -79.162248], [159.788211, -80.945395], [163.705336, -82.395435], [168.895665, -83.335998], [169.404782, -83.825891], [172.283934, -84.041433], [173.224083, -84.41371], [175.985672, -84.158997], [180.0, -84.71338], [180.0, -90.0], [-180.0, -90.0], [-180.0, -84.71338]]], [[[-122.406245, -73.324619], [-119.918851, -73.657725], [-118.724143, -73.481353], [-120.232217, -74.08881], [-122.621735, -73.657778], [-122.406245, -73.324619]]], [[[-126.558472, -73.246226], [-124.031882, -73.873268], [-127.28313, -73.461768], [-126.558472, -73.246226]]], [[[-102.330725, -71.894164], [-96.787937, -71.952971], [-96.20035, -72.521205], [-100.783455, -72.50162], [-102.330725, -71.894164]]], [[[-72.074717, -71.190951], [-71.741791, -69.505782], [-71.173815, -69.035475], [-70.253252, -68.87874], [-68.725541, -70.505153], [-68.333834, -71.406493], [-68.784297, -72.170736], [-71.075889, -72.503842], [-72.388134, -72.484257], [-71.8985, -72.092343], [-74.19004, -72.366693], [-74.953895, -72.072757], [-75.012625, -71.661258], [-73.915819, -71.269344], [-72.074717, -71.190951]]]]}}]}